{"type":"FeatureCollection","features":[{"type":"Feature","id":"district:LB24","geometry":{"type":"Polygon","coordinates":[[[35.89345,33.77765],[35.88694,33.77552],[35.88335,33.77246],[35.88453,33.77597],[35.87314,33.77177],[35.86107,33.76438],[35.85661,33.75754],[35.85558,33.74873],[35.84776,33.74272],[35.83977,33.74072],[35.83624,33.73785],[35.8296,33.72761],[35.82672,33.70576],[35.82522,33.70568],[35.82333,33.7178],[35.82048,33.71951],[35.82006,33.72439],[35.81551,33.73497],[35.81612,33.74735],[35.80856,33.75304],[35.80644,33.74585],[35.79133,33.75045],[35.78633,33.74752],[35.78084,33.74074],[35.77924,33.74487],[35.76949,33.73536],[35.76412,33.73351],[35.7599,33.72632],[35.76075,33.72277],[35.75239,33.71768],[35.74443,33.72388],[35.73645,33.72532],[35.73584,33.72246],[35.73971,33.71453],[35.74691,33.70776],[35.74884,33.70976],[35.75411,33.70779],[35.75957,33.70893],[35.75767,33.70299],[35.75377,33.69649],[35.74975,33.6982],[35.746,33.70552],[35.74272,33.70073],[35.73588,33.69582],[35.7324,33.68896],[35.7246,33.69213],[35.71553,33.68324],[35.71305,33.68439],[35.70676,33.67927],[35.69918,33.67652],[35.69922,33.67203],[35.70343,33.66683],[35.70586,33.6592],[35.707,33.65968],[35.71371,33.6544],[35.70819,33.65307],[35.7035,33.65609],[35.70411,33.6581],[35.70147,33.66152],[35.70136,33.66427],[35.69664,33.66845],[35.6958,33.66319],[35.6918,33.65911],[35.69154,33.65495],[35.68678,33.64617],[35.68344,33.644],[35.68206,33.63986],[35.67424,33.63194],[35.67418,33.62802],[35.66176,33.60204],[35.65852,33.59081],[35.65456,33.58916],[35.65495,33.57887],[35.64894,33.56127],[35.65055,33.55769],[35.64707,33.55555],[35.64316,33.54273],[35.6343,33.53176],[35.63467,33.526],[35.63078,33.52231],[35.63392,33.51787],[35.63194,33.5149],[35.62901,33.51465],[35.62881,33.51173],[35.63287,33.50834],[35.62987,33.50629],[35.63125,33.49972],[35.62334,33.49245],[35.62492,33.49102],[35.62486,33.48801],[35.62346,33.48034],[35.61994,33.47641],[35.62097,33.47009],[35.61898,33.46431],[35.61439,33.46134],[35.61403,33.45422],[35.61695,33.45065],[35.61436,33.44735],[35.61494,33.4433],[35.61257,33.44239],[35.60931,33.43136],[35.61541,33.43233],[35.62422,33.44829],[35.62968,33.44888],[35.63333,33.4463],[35.63732,33.44605],[35.63185,33.43505],[35.62947,33.43319],[35.63174,33.4279],[35.63687,33.42849],[35.64652,33.43533],[35.65015,33.43571],[35.65243,33.4334],[35.65148,33.43218],[35.65372,33.42589],[35.65635,33.42611],[35.65801,33.4209],[35.65789,33.42321],[35.66163,33.42381],[35.66312,33.42775],[35.66494,33.42688],[35.66681,33.43057],[35.66876,33.4306],[35.67005,33.43941],[35.67564,33.4423],[35.67776,33.44593],[35.68003,33.44666],[35.67855,33.44743],[35.68122,33.45033],[35.68441,33.45076],[35.68268,33.45625],[35.68634,33.46629],[35.68786,33.46512],[35.69173,33.46743],[35.69488,33.46617],[35.69424,33.4653],[35.69746,33.46423],[35.69516,33.46177],[35.69567,33.4593],[35.70163,33.45912],[35.70494,33.46372],[35.71112,33.46218],[35.71564,33.46609],[35.71845,33.46656],[35.71924,33.4693],[35.72401,33.46769],[35.73183,33.47425],[35.74328,33.48074],[35.72124,33.49788],[35.71113,33.48862],[35.70341,33.49517],[35.70754,33.49826],[35.70795,33.5051],[35.71056,33.50772],[35.71064,33.51154],[35.70828,33.5138],[35.70749,33.51902],[35.70935,33.52247],[35.70782,33.52413],[35.70771,33.52829],[35.68653,33.52969],[35.68835,33.53673],[35.69375,33.53968],[35.69236,33.54351],[35.69722,33.54076],[35.70817,33.5422],[35.71342,33.54074],[35.71353,33.5424],[35.717,33.54117],[35.71932,33.54268],[35.72029,33.54161],[35.72123,33.54362],[35.72557,33.54436],[35.73111,33.54988],[35.7345,33.54936],[35.73888,33.55436],[35.7406,33.55239],[35.74225,33.55291],[35.74259,33.55591],[35.74508,33.55233],[35.75296,33.55874],[35.75719,33.55726],[35.75865,33.56023],[35.76664,33.55748],[35.77062,33.55804],[35.77239,33.56079],[35.77158,33.56534],[35.76932,33.56774],[35.7707,33.5722],[35.77532,33.57474],[35.77566,33.57659],[35.77732,33.5764],[35.78013,33.58395],[35.78218,33.58414],[35.78231,33.58604],[35.7767,33.59312],[35.78202,33.59352],[35.78591,33.59597],[35.78803,33.59458],[35.78971,33.60574],[35.79329,33.60857],[35.79908,33.6091],[35.80069,33.61077],[35.81416,33.60674],[35.81228,33.60228],[35.81768,33.60001],[35.81377,33.60521],[35.82316,33.59806],[35.82459,33.59954],[35.825,33.60666],[35.83144,33.61111],[35.83602,33.61158],[35.83947,33.61794],[35.846,33.62045],[35.84749,33.62612],[35.85025,33.62828],[35.84877,33.63331],[35.85355,33.63871],[35.86322,33.64237],[35.86644,33.64231],[35.87206,33.63694],[35.8826,33.63829],[35.89128,33.64273],[35.90082,33.64433],[35.91185,33.65392],[35.92063,33.65782],[35.92389,33.66288],[35.92244,33.66558],[35.92381,33.66742],[35.92317,33.67387],[35.9203,33.67493],[35.92477,33.67822],[35.92952,33.6789],[35.93515,33.68386],[35.94287,33.68504],[35.94412,33.68795],[35.9385,33.68854],[35.92558,33.69785],[35.92436,33.70118],[35.90633,33.70494],[35.90277,33.7043],[35.90398,33.70032],[35.89674,33.70117],[35.89161,33.69581],[35.88112,33.70577],[35.87313,33.71059],[35.87284,33.71376],[35.87776,33.72275],[35.88072,33.72343],[35.88355,33.72763],[35.8924,33.72825],[35.89672,33.7355],[35.90467,33.73906],[35.90849,33.74252],[35.9003,33.75067],[35.90387,33.75129],[35.90014,33.75562],[35.90347,33.75802],[35.90046,33.75758],[35.89804,33.75972],[35.89425,33.76012],[35.89407,33.76173],[35.8916,33.76175],[35.8919,33.76734],[35.89593,33.77092],[35.89308,33.77336],[35.89544,33.77579],[35.89345,33.77765]]]},"properties":{"entity_type":"district_survey_summary","name_en":"West Bekaa","name_ar":"البقاع الغربي","adm2_pcode":"LB24","n_respondents":15,"n_remainder":0,"remainder_villages":0,"instruments":["beqaa_2026"],"geom_origin":"district_polygon","spatial_precision":"district","indicators":{"age_group":{"n_answered":15,"status_counts":{},"counts":{"age_18_25":0,"age_26_35":0,"age_36_45":3,"age_46_55":3,"age_over_55":9},"suppressed":null,"mode":"age_over_55"},"gender":{"n_answered":15,"status_counts":{},"counts":{"male":15,"female":0},"suppressed":null,"mode":"male"},"income_sources":{"n_answered":15,"status_counts":{},"counts":{"crops":12,"livestock":0,"non_ag_labour":6,"ag_labour":4,"government":0,"business":null,"remittances":0,"other":0},"suppressed":"small_cells","mode":"crops"},"fertilizer_cost_share":{"n_answered":15,"status_counts":{},"counts":{"lt_20":null,"20_50":10,"gt_50":null},"suppressed":"small_cells","mode":"20_50"},"pesticide_cost_share":{"n_answered":15,"status_counts":{},"counts":{"lt_20":null,"20_50":10,"gt_50":null},"suppressed":"small_cells","mode":"20_50"}},"remainder_indicators":{}}},{"type":"Feature","id":"district:LB25","geometry":{"type":"Polygon","coordinates":[[[35.9155,33.9317],[35.90787,33.93422],[35.8953,33.91968],[35.88985,33.91696],[35.87943,33.91619],[35.87837,33.91355],[35.87461,33.91294],[35.87111,33.91367],[35.87043,33.91664],[35.86811,33.91839],[35.86319,33.91727],[35.86039,33.91126],[35.85403,33.90478],[35.8549,33.90287],[35.85857,33.90281],[35.8613,33.9003],[35.85953,33.89443],[35.85445,33.89486],[35.85274,33.89089],[35.8464,33.89126],[35.84437,33.88641],[35.84801,33.88585],[35.84763,33.88275],[35.84391,33.87958],[35.84221,33.88022],[35.834,33.87727],[35.83234,33.87395],[35.83306,33.87137],[35.82561,33.86921],[35.8239,33.86197],[35.81387,33.85402],[35.81017,33.84853],[35.79783,33.84109],[35.79707,33.83332],[35.80108,33.82996],[35.80259,33.82597],[35.79978,33.82625],[35.79628,33.82297],[35.79193,33.82302],[35.78963,33.81377],[35.79294,33.80941],[35.7848,33.80967],[35.78069,33.81269],[35.76747,33.81013],[35.76639,33.8079],[35.76812,33.8038],[35.7751,33.79756],[35.77503,33.79458],[35.78066,33.79123],[35.78302,33.7927],[35.78955,33.79284],[35.80102,33.78927],[35.81099,33.79144],[35.81142,33.78734],[35.80497,33.78077],[35.80302,33.77068],[35.79647,33.75666],[35.79134,33.75045],[35.80644,33.74585],[35.80856,33.75304],[35.81572,33.74809],[35.81551,33.73497],[35.82006,33.72439],[35.82048,33.71951],[35.82333,33.7178],[35.82522,33.70568],[35.82672,33.70576],[35.8276,33.70971],[35.8296,33.72761],[35.83351,33.73443],[35.83957,33.74064],[35.84718,33.74242],[35.85558,33.74873],[35.85661,33.75754],[35.86107,33.76438],[35.87314,33.77177],[35.88453,33.77597],[35.88335,33.77246],[35.88694,33.77552],[35.89329,33.77779],[35.89544,33.77579],[35.89308,33.77336],[35.89593,33.77092],[35.8919,33.76734],[35.8916,33.76175],[35.89407,33.76173],[35.89425,33.76012],[35.89804,33.75972],[35.90046,33.75758],[35.90347,33.75802],[35.90014,33.75562],[35.90387,33.75129],[35.9003,33.75067],[35.90849,33.74252],[35.90467,33.73906],[35.89672,33.7355],[35.8924,33.72825],[35.88355,33.72763],[35.88072,33.72343],[35.87776,33.72275],[35.87284,33.71376],[35.87313,33.71059],[35.88112,33.70577],[35.89161,33.69581],[35.89674,33.70117],[35.90398,33.70032],[35.90277,33.7043],[35.90633,33.70494],[35.92436,33.70118],[35.92558,33.69785],[35.9385,33.68854],[35.94412,33.68795],[35.94774,33.68365],[35.96115,33.68921],[35.96404,33.68265],[35.96481,33.67563],[35.96728,33.67627],[35.96916,33.68351],[35.97176,33.68478],[35.97264,33.68873],[35.97519,33.68913],[35.97421,33.69367],[35.96906,33.69746],[35.96824,33.7005],[35.9721,33.70638],[35.96998,33.71423],[35.97168,33.72026],[35.97532,33.72408],[35.9748,33.72901],[35.97697,33.72941],[35.98101,33.72646],[35.98787,33.72615],[35.99001,33.73349],[35.99806,33.7411],[36.00465,33.7546],[36.01174,33.76261],[36.00945,33.76758],[36.0118,33.76972],[36.01839,33.76947],[36.02787,33.76386],[36.03249,33.76583],[36.03673,33.77314],[36.04459,33.77949],[36.04914,33.78568],[36.05713,33.80448],[36.06733,33.81604],[36.07113,33.82335],[36.08029,33.82904],[36.07464,33.82926],[36.07899,33.83252],[36.08337,33.84203],[36.08319,33.84538],[36.08787,33.84966],[36.08823,33.85434],[36.09041,33.85488],[36.09114,33.85757],[36.10038,33.86054],[36.09561,33.86331],[36.09696,33.86513],[36.09251,33.86835],[36.083,33.86421],[36.07343,33.87323],[36.0655,33.86808],[36.06001,33.86958],[36.05802,33.86678],[36.05462,33.86589],[36.05098,33.86881],[36.04933,33.86709],[36.05009,33.86591],[36.04896,33.86608],[36.04363,33.87068],[36.03625,33.87337],[36.0392,33.87719],[36.03108,33.88387],[36.02967,33.87724],[36.02485,33.88033],[36.01498,33.87327],[36.01429,33.8724],[36.01641,33.87168],[36.01319,33.86841],[36.00857,33.86465],[36.00704,33.86575],[35.99705,33.85761],[35.99864,33.86658],[35.99529,33.86648],[35.98648,33.87954],[35.98388,33.87956],[35.98029,33.88309],[35.98375,33.88858],[35.97785,33.89712],[35.97246,33.89899],[35.97081,33.90598],[35.96605,33.90969],[35.96214,33.90995],[35.95675,33.91596],[35.94938,33.91377],[35.94354,33.90918],[35.93832,33.91306],[35.93306,33.91409],[35.93038,33.91686],[35.9197,33.91808],[35.91935,33.92279],[35.91658,33.92593],[35.9155,33.9317]]]},"properties":{"entity_type":"district_survey_summary","name_en":"Zahle","name_ar":"زحلة","adm2_pcode":"LB25","n_respondents":10,"n_remainder":10,"remainder_villages":6,"instruments":["beqaa_2026"],"geom_origin":"district_polygon","spatial_precision":"district","mode__owns_land":"yes","mode__land_size_band":"gt_2_ha","mode__soil_types":"clay","mode__crop_groups":"vegetables","mode__water_sources":"well","mode__water_availability":"sometimes","mode__water_scarcity":"yes","mode__irrigation_need_change":"increase","mode__energy_sources":"diesel","mode__production_level":"small","mode__coop_member":"no","mode__homes_trad_food":"few","mode__seed_criteria":"price","mode__seed_sources":"shop","mode__seed_challenges":"high_cost","mode__traditional_seed_knowledge":"no","mode__soil_enhancers":"chemical","mode__chem_fertilizer_reliance":"partial","mode__pest_control":"chemical","mode__pesticide_reliance":"total","mode__marketing_challenges":"low_prices","mode__logistics_challenges":"high_transport_cost","mode__climate_change_noticed":"yes","mode__climate_changes":"temperature_rise","mode__climate_impacts":"production_decrease","mode__raises_poultry":"no","mode__farmer_type":"type_a","mode__low_input_practices":"yes","indicators":{"age_group":{"n_answered":10,"status_counts":{},"counts":{"age_18_25":0,"age_26_35":0,"age_36_45":null,"age_46_55":5,"age_over_55":null},"suppressed":"small_cells","mode":"age_46_55"},"gender":{"n_answered":10,"status_counts":{},"counts":{"male":10,"female":0},"suppressed":null,"mode":"male"},"income_sources":{"n_answered":10,"status_counts":{},"counts":{"crops":8,"livestock":0,"non_ag_labour":null,"ag_labour":4,"government":0,"business":null,"remittances":0,"other":0},"suppressed":"small_cells","mode":"crops"},"fertilizer_cost_share":{"n_answered":10,"status_counts":{},"counts":{"lt_20":null,"20_50":7,"gt_50":null},"suppressed":"small_cells","mode":"20_50"},"pesticide_cost_share":{"n_answered":10,"status_counts":{},"counts":{"lt_20":null,"20_50":null,"gt_50":6},"suppressed":"small_cells","mode":"gt_50"}},"remainder_indicators":{"owns_land":{"n_answered":10,"status_counts":{},"counts":{"yes":10,"no":0},"suppressed":null,"mode":"yes"},"land_size_band":{"n_answered":10,"status_counts":{},"counts":{"lt_5_dunum":1,"lt_1_ha":2,"gt_1_ha":3,"gt_2_ha":4},"suppressed":null,"mode":"gt_2_ha"},"soil_types":{"n_answered":10,"status_counts":{},"counts":{"loamy":3,"clay":7,"sandy":0,"calcareous":0,"acidic":0},"suppressed":null,"mode":"clay"},"crop_groups":{"n_answered":9,"status_counts":{"not_provided":1},"counts":{"olives":0,"apples_pears":0,"stone_fruits":0,"citrus":0,"tropical_fruits":0,"grapes":0,"other_fruits":0,"nuts_pine":0,"vegetables":8,"legumes":4,"cereals_fodder":0,"herbs":0,"nursery":0,"other":0},"suppressed":null,"mode":"vegetables"},"water_sources":{"n_answered":10,"status_counts":{},"counts":{"rain":5,"river":0,"well":9,"tanker":0,"canal":2,"spring":0,"public_network":0,"storage":0,"other":0},"suppressed":null,"mode":"well"},"water_availability":{"n_answered":10,"status_counts":{},"counts":{"always":0,"sometimes":10,"rarely":0,"never":0},"suppressed":null,"mode":"sometimes"},"water_scarcity":{"n_answered":10,"status_counts":{},"counts":{"yes":9,"no":1},"suppressed":null,"mode":"yes"},"irrigation_need_change":{"n_answered":10,"status_counts":{},"counts":{"increase":10,"decrease":0,"no_change":0,"unsure":0},"suppressed":null,"mode":"increase"},"energy_sources":{"n_answered":10,"status_counts":{},"counts":{"manual":1,"grid":0,"diesel":9,"solar":0,"gasoline":0,"gravity":0,"none":0,"other":0},"suppressed":null,"mode":"diesel"},"production_level":{"n_answered":10,"status_counts":{},"counts":{"small":4,"medium":4,"large":2},"suppressed":null,"mode":"small"},"coop_member":{"n_answered":10,"status_counts":{},"counts":{"yes":1,"no":9},"suppressed":null,"mode":"no"},"homes_trad_food":{"n_answered":5,"status_counts":{"not_provided":5},"counts":{"few":2,"some":0,"most":2,"almost_all":1},"suppressed":null,"mode":"few"},"seed_criteria":{"n_answered":10,"status_counts":{},"counts":{"price":9,"productivity":5,"pest_resistance":3,"all":0,"none":0},"suppressed":null,"mode":"price"},"seed_sources":{"n_answered":10,"status_counts":{},"counts":{"shop":10,"nursery":0,"neighbour":0,"association":0,"own_harvest":0,"other":0},"suppressed":null,"mode":"shop"},"seed_challenges":{"n_answered":10,"status_counts":{},"counts":{"high_cost":10,"low_availability":0,"unreliable_suppliers":1,"unsuitable":0,"none":0},"suppressed":null,"mode":"high_cost"},"traditional_seed_knowledge":{"n_answered":10,"status_counts":{},"counts":{"yes":3,"no":7},"suppressed":null,"mode":"no"},"soil_enhancers":{"n_answered":10,"status_counts":{},"counts":{"chemical":10,"compost":3,"biofertilizer":0,"manure":7,"none":0},"suppressed":null,"mode":"chemical"},"chem_fertilizer_reliance":{"n_answered":10,"status_counts":{},"counts":{"not_used":0,"partial":7,"total":3},"suppressed":null,"mode":"partial"},"pest_control":{"n_answered":10,"status_counts":{},"counts":{"chemical":9,"biological":1,"physical":0,"local":0},"suppressed":null,"mode":"chemical"},"pesticide_reliance":{"n_answered":10,"status_counts":{},"counts":{"not_used":0,"partial":0,"total":10},"suppressed":null,"mode":"total"},"marketing_challenges":{"n_answered":10,"status_counts":{},"counts":{"low_prices":9,"weak_demand":0,"far_markets":0,"no_transport":0,"poor_packaging":0,"other":1},"suppressed":null,"mode":"low_prices"},"logistics_challenges":{"n_answered":10,"status_counts":{},"counts":{"high_transport_cost":10,"no_paved_roads":0,"no_transport":0,"other":0},"suppressed":null,"mode":"high_transport_cost"},"climate_change_noticed":{"n_answered":10,"status_counts":{},"counts":{"yes":10,"no":0},"suppressed":null,"mode":"yes"},"climate_changes":{"n_answered":10,"status_counts":{},"counts":{"temperature_rise":9,"rainfall_decrease":2,"heatwaves":8,"frost":0,"less_snow":0,"other":0},"suppressed":null,"mode":"temperature_rise"},"climate_impacts":{"n_answered":10,"status_counts":{},"counts":{"production_decrease":7,"season_delay":3,"pests_diseases":4,"pollination":1,"no_major_impact":0,"other":0},"suppressed":null,"mode":"production_decrease"},"info_sources":{"n_answered":0,"status_counts":{"not_asked":10},"counts":null,"suppressed":"fewer_than_k_answers","mode":null},"raises_poultry":{"n_answered":10,"status_counts":{},"counts":{"yes":0,"no":10},"suppressed":null,"mode":"no"},"poultry_purpose":{"n_answered":0,"status_counts":{"not_asked":10},"counts":null,"suppressed":"fewer_than_k_answers","mode":null},"farmer_type":{"n_answered":10,"status_counts":{},"counts":{"type_a":10,"type_b":0,"type_c":0,"type_d":0},"suppressed":null,"mode":"type_a"},"low_input_practices":{"n_answered":10,"status_counts":{},"counts":{"yes":9,"no":1},"suppressed":null,"mode":"yes"}}}},{"type":"Feature","id":"district:LB33","geometry":{"type":"Polygon","coordinates":[[[35.45922,33.76339],[35.45145,33.75286],[35.44859,33.74622],[35.44431,33.72793],[35.44345,33.71083],[35.43914,33.70594],[35.43657,33.69831],[35.42798,33.69547],[35.42274,33.69566],[35.41586,33.68838],[35.41849,33.68254],[35.4174,33.66246],[35.41485,33.65336],[35.41263,33.65087],[35.40763,33.65056],[35.4067,33.64893],[35.40514,33.65172],[35.40402,33.6489],[35.40038,33.64882],[35.40079,33.65009],[35.39784,33.64718],[35.4001,33.63819],[35.39886,33.63641],[35.39837,33.62326],[35.39948,33.618],[35.3959,33.60803],[35.38839,33.60655],[35.38792,33.59551],[35.38582,33.58921],[35.39859,33.58705],[35.40423,33.58455],[35.406,33.58144],[35.41051,33.58378],[35.4122,33.58117],[35.42353,33.58101],[35.42436,33.57981],[35.42281,33.57926],[35.42507,33.57773],[35.43152,33.5763],[35.43213,33.5753],[35.42906,33.57419],[35.43056,33.57249],[35.43305,33.573],[35.43487,33.57039],[35.44016,33.57206],[35.43886,33.57359],[35.43984,33.57466],[35.4457,33.57105],[35.44494,33.57294],[35.44648,33.57444],[35.45178,33.5667],[35.45689,33.56901],[35.4597,33.56487],[35.46603,33.56459],[35.47115,33.56847],[35.47313,33.56305],[35.47594,33.56621],[35.47701,33.57443],[35.47849,33.57173],[35.48164,33.57306],[35.48381,33.57108],[35.48748,33.57372],[35.49786,33.57317],[35.50439,33.57595],[35.50807,33.57517],[35.51797,33.58186],[35.52327,33.58181],[35.52554,33.57992],[35.53217,33.58144],[35.53434,33.57963],[35.5478,33.58731],[35.54751,33.59026],[35.55353,33.58971],[35.55512,33.59482],[35.55804,33.59408],[35.56149,33.59736],[35.56316,33.59622],[35.56656,33.59751],[35.56598,33.59422],[35.56769,33.59116],[35.56872,33.59229],[35.57199,33.59024],[35.57779,33.59071],[35.57938,33.58804],[35.57629,33.58634],[35.57851,33.58383],[35.58162,33.58512],[35.58192,33.59014],[35.58944,33.58621],[35.58988,33.58725],[35.58703,33.58894],[35.59487,33.59239],[35.59499,33.58956],[35.59605,33.59202],[35.60343,33.57957],[35.60347,33.57184],[35.6054,33.57112],[35.60254,33.5691],[35.59924,33.5618],[35.59704,33.56146],[35.59333,33.55514],[35.59626,33.55034],[35.6098,33.54263],[35.61423,33.52548],[35.61657,33.52347],[35.61214,33.51302],[35.61437,33.50822],[35.60914,33.50447],[35.61347,33.5031],[35.61925,33.505],[35.62003,33.49828],[35.61793,33.49213],[35.62059,33.49165],[35.6261,33.49409],[35.62808,33.49799],[35.63125,33.49972],[35.62987,33.50629],[35.63287,33.50804],[35.6287,33.51209],[35.62901,33.51465],[35.63194,33.5149],[35.63392,33.51787],[35.63078,33.52231],[35.63467,33.526],[35.6343,33.53176],[35.64316,33.54273],[35.64707,33.55555],[35.65055,33.55769],[35.64894,33.56127],[35.65495,33.57887],[35.65456,33.58916],[35.65852,33.59081],[35.66176,33.60204],[35.67418,33.62802],[35.67424,33.63194],[35.68206,33.63986],[35.68344,33.644],[35.68678,33.64617],[35.69154,33.65495],[35.6918,33.65911],[35.6958,33.66319],[35.69664,33.66845],[35.70136,33.66427],[35.70147,33.66152],[35.70411,33.6581],[35.7035,33.65609],[35.70819,33.65307],[35.71371,33.6544],[35.707,33.65968],[35.70586,33.6592],[35.70343,33.66683],[35.69922,33.67203],[35.69918,33.67652],[35.70676,33.67927],[35.71305,33.68439],[35.71553,33.68324],[35.7246,33.69213],[35.7324,33.68896],[35.73588,33.69582],[35.74272,33.70073],[35.746,33.70552],[35.74975,33.6982],[35.75377,33.69649],[35.75957,33.70893],[35.75411,33.70779],[35.74884,33.70976],[35.74691,33.70776],[35.73971,33.71453],[35.73584,33.72246],[35.73629,33.72498],[35.74443,33.72388],[35.75239,33.71768],[35.76075,33.72277],[35.7599,33.72632],[35.76412,33.73351],[35.77028,33.73602],[35.74179,33.74581],[35.73224,33.74682],[35.72261,33.74566],[35.72151,33.74745],[35.71742,33.74605],[35.71063,33.7514],[35.70762,33.75201],[35.70678,33.75399],[35.69856,33.75686],[35.69108,33.75004],[35.68749,33.74893],[35.68853,33.74782],[35.68581,33.74323],[35.67392,33.73432],[35.66689,33.73924],[35.66199,33.73666],[35.65128,33.73813],[35.64842,33.7402],[35.64818,33.74385],[35.64675,33.74248],[35.64524,33.7453],[35.64123,33.74444],[35.6436,33.74916],[35.64156,33.74998],[35.63772,33.74924],[35.62562,33.73888],[35.61583,33.7361],[35.61995,33.7348],[35.60217,33.72957],[35.59813,33.72227],[35.57829,33.72561],[35.57541,33.72444],[35.56527,33.727],[35.55416,33.71933],[35.5458,33.71811],[35.54098,33.71214],[35.51882,33.70532],[35.5131,33.70608],[35.50473,33.70244],[35.5007,33.70447],[35.50034,33.70196],[35.49805,33.70288],[35.49108,33.70144],[35.49304,33.7112],[35.48921,33.70718],[35.48737,33.70854],[35.48844,33.71213],[35.48685,33.71381],[35.48744,33.71562],[35.48036,33.7163],[35.47933,33.72038],[35.47135,33.71774],[35.46891,33.72316],[35.47403,33.72308],[35.47421,33.7275],[35.47948,33.72696],[35.47992,33.72818],[35.47627,33.7298],[35.47355,33.72893],[35.46182,33.73396],[35.46711,33.73718],[35.46597,33.7389],[35.46686,33.74111],[35.47149,33.74457],[35.47534,33.74217],[35.48041,33.74152],[35.48121,33.74274],[35.49088,33.74028],[35.48931,33.74349],[35.48351,33.74613],[35.47902,33.75184],[35.47116,33.75327],[35.46548,33.75257],[35.46521,33.75691],[35.46833,33.75977],[35.46772,33.76097],[35.46087,33.7612],[35.46105,33.76323],[35.45922,33.76339]]]},"properties":{"entity_type":"district_survey_summary","name_en":"Chouf","name_ar":"الشوف","adm2_pcode":"LB33","n_respondents":178,"n_remainder":76,"remainder_villages":37,"instruments":["chouf_2026"],"geom_origin":"district_polygon","spatial_precision":"district","mode__owns_land":"yes","mode__land_size_band":"lt_5_dunum","mode__soil_types":"clay","mode__crop_groups":"vegetables","mode__water_sources":"storage","mode__water_availability":"sometimes","mode__water_scarcity":"yes","mode__irrigation_need_change":"increase","mode__energy_sources":"manual","mode__production_level":"medium","mode__coop_member":"no","mode__homes_trad_food":"some","mode__seed_criteria":"productivity","mode__seed_sources":"shop","mode__seed_challenges":"high_cost","mode__traditional_seed_knowledge":"no","mode__soil_enhancers":"manure","mode__chem_fertilizer_reliance":"partial","mode__pest_control":"chemical","mode__pesticide_reliance":"partial","mode__marketing_challenges":"low_prices","mode__logistics_challenges":"high_transport_cost","mode__climate_change_noticed":"yes","mode__climate_changes":"rainfall_decrease","mode__climate_impacts":"production_decrease","mode__info_sources":"social_media","mode__raises_poultry":"yes","mode__poultry_purpose":"home_consumption","mode__farmer_type":"type_d","mode__low_input_practices":"yes","indicators":{"age_group":{"n_answered":0,"status_counts":{"not_asked":178},"counts":null,"suppressed":"fewer_than_k_answers","mode":null},"gender":{"n_answered":0,"status_counts":{"not_asked":178},"counts":null,"suppressed":"fewer_than_k_answers","mode":null},"income_sources":{"n_answered":154,"status_counts":{"not_provided":24},"counts":{"crops":79,"livestock":23,"non_ag_labour":17,"ag_labour":86,"government":16,"business":7,"remittances":null,"other":0},"suppressed":"small_cells","mode":"ag_labour"},"fertilizer_cost_share":{"n_answered":148,"status_counts":{"not_applicable":25,"not_provided":5},"counts":{"lt_20":49,"20_50":78,"gt_50":21},"suppressed":null,"mode":"20_50"},"pesticide_cost_share":{"n_answered":166,"status_counts":{"not_applicable":6,"not_provided":6},"counts":{"lt_20":60,"20_50":82,"gt_50":24},"suppressed":null,"mode":"20_50"}},"remainder_indicators":{"owns_land":{"n_answered":76,"status_counts":{},"counts":{"yes":76,"no":0},"suppressed":null,"mode":"yes"},"land_size_band":{"n_answered":76,"status_counts":{},"counts":{"lt_5_dunum":47,"lt_1_ha":18,"gt_1_ha":8,"gt_2_ha":3},"suppressed":null,"mode":"lt_5_dunum"},"soil_types":{"n_answered":76,"status_counts":{},"counts":{"loamy":34,"clay":35,"sandy":5,"calcareous":9,"acidic":0},"suppressed":null,"mode":"clay"},"crop_groups":{"n_answered":73,"status_counts":{"invalid":2,"not_provided":1},"counts":{"olives":26,"apples_pears":6,"stone_fruits":2,"citrus":3,"tropical_fruits":10,"grapes":3,"other_fruits":9,"nuts_pine":1,"vegetables":44,"legumes":19,"cereals_fodder":2,"herbs":6,"nursery":4,"other":1},"suppressed":null,"mode":"vegetables"},"water_sources":{"n_answered":76,"status_counts":{},"counts":{"rain":17,"river":15,"well":7,"tanker":26,"canal":18,"spring":6,"public_network":4,"storage":29,"other":0},"suppressed":null,"mode":"storage"},"water_availability":{"n_answered":75,"status_counts":{"not_provided":1},"counts":{"always":8,"sometimes":31,"rarely":19,"never":17},"suppressed":null,"mode":"sometimes"},"water_scarcity":{"n_answered":76,"status_counts":{},"counts":{"yes":66,"no":10},"suppressed":null,"mode":"yes"},"irrigation_need_change":{"n_answered":76,"status_counts":{},"counts":{"increase":56,"decrease":9,"no_change":6,"unsure":5},"suppressed":null,"mode":"increase"},"energy_sources":{"n_answered":76,"status_counts":{},"counts":{"manual":44,"grid":20,"diesel":19,"solar":7,"gasoline":0,"gravity":2,"none":3,"other":0},"suppressed":null,"mode":"manual"},"production_level":{"n_answered":76,"status_counts":{},"counts":{"small":25,"medium":48,"large":3},"suppressed":null,"mode":"medium"},"coop_member":{"n_answered":76,"status_counts":{},"counts":{"yes":3,"no":73},"suppressed":null,"mode":"no"},"homes_trad_food":{"n_answered":76,"status_counts":{},"counts":{"few":18,"some":28,"most":23,"almost_all":7},"suppressed":null,"mode":"some"},"seed_criteria":{"n_answered":76,"status_counts":{},"counts":{"price":44,"productivity":58,"pest_resistance":38,"all":0,"none":6},"suppressed":null,"mode":"productivity"},"seed_sources":{"n_answered":75,"status_counts":{"not_provided":1},"counts":{"shop":58,"nursery":1,"neighbour":10,"association":9,"own_harvest":23,"other":0},"suppressed":null,"mode":"shop"},"seed_challenges":{"n_answered":76,"status_counts":{},"counts":{"high_cost":48,"low_availability":39,"unreliable_suppliers":27,"unsuitable":13,"none":4},"suppressed":null,"mode":"high_cost"},"traditional_seed_knowledge":{"n_answered":76,"status_counts":{},"counts":{"yes":14,"no":62},"suppressed":null,"mode":"no"},"soil_enhancers":{"n_answered":76,"status_counts":{},"counts":{"chemical":32,"compost":32,"biofertilizer":6,"manure":52,"none":4},"suppressed":null,"mode":"manure"},"chem_fertilizer_reliance":{"n_answered":74,"status_counts":{"not_provided":2},"counts":{"not_used":19,"partial":49,"total":6},"suppressed":null,"mode":"partial"},"pest_control":{"n_answered":76,"status_counts":{},"counts":{"chemical":53,"biological":16,"physical":8,"local":16},"suppressed":null,"mode":"chemical"},"pesticide_reliance":{"n_answered":74,"status_counts":{"not_provided":2},"counts":{"not_used":13,"partial":40,"total":21},"suppressed":null,"mode":"partial"},"marketing_challenges":{"n_answered":70,"status_counts":{"not_provided":6},"counts":{"low_prices":44,"weak_demand":33,"far_markets":21,"no_transport":10,"poor_packaging":9,"other":0},"suppressed":null,"mode":"low_prices"},"logistics_challenges":{"n_answered":72,"status_counts":{"not_provided":4},"counts":{"high_transport_cost":61,"no_paved_roads":17,"no_transport":16,"other":0},"suppressed":null,"mode":"high_transport_cost"},"climate_change_noticed":{"n_answered":76,"status_counts":{},"counts":{"yes":74,"no":2},"suppressed":null,"mode":"yes"},"climate_changes":{"n_answered":74,"status_counts":{"not_applicable":1,"not_provided":1},"counts":{"temperature_rise":56,"rainfall_decrease":71,"heatwaves":36,"frost":17,"less_snow":0,"other":0},"suppressed":null,"mode":"rainfall_decrease"},"climate_impacts":{"n_answered":76,"status_counts":{},"counts":{"production_decrease":55,"season_delay":37,"pests_diseases":45,"pollination":23,"no_major_impact":3,"other":1},"suppressed":null,"mode":"production_decrease"},"info_sources":{"n_answered":75,"status_counts":{"not_provided":1},"counts":{"social_media":54,"extension_agents":34,"supply_shops":32,"television":7,"other":0},"suppressed":null,"mode":"social_media"},"raises_poultry":{"n_answered":76,"status_counts":{},"counts":{"yes":43,"no":33},"suppressed":null,"mode":"yes"},"poultry_purpose":{"n_answered":44,"status_counts":{"not_applicable":31,"not_provided":1},"counts":{"home_consumption":37,"local_sale":19,"gifts":3},"suppressed":null,"mode":"home_consumption"},"farmer_type":{"n_answered":76,"status_counts":{},"counts":{"type_a":15,"type_b":17,"type_c":20,"type_d":24},"suppressed":null,"mode":"type_d"},"low_input_practices":{"n_answered":76,"status_counts":{},"counts":{"yes":66,"no":10},"suppressed":null,"mode":"yes"}}}}]}