{"type":"FeatureCollection","features":[{"type":"Feature","id":"village:23111","geometry":{"type":"Polygon","coordinates":[[[35.46303,33.73469],[35.46112,33.7342],[35.4588,33.73548],[35.45497,33.73628],[35.45488,33.73417],[35.45298,33.73394],[35.45291,33.7311],[35.4533,33.73026],[35.45417,33.73019],[35.45326,33.72953],[35.45272,33.72748],[35.45175,33.7275],[35.45183,33.72859],[35.44541,33.72956],[35.44431,33.72793],[35.44364,33.7137],[35.4431,33.71211],[35.44345,33.71083],[35.4417,33.70831],[35.43914,33.70594],[35.43657,33.69831],[35.43308,33.69753],[35.43165,33.69672],[35.42902,33.69674],[35.42865,33.69638],[35.42905,33.69598],[35.42798,33.69547],[35.42745,33.69575],[35.42481,33.69526],[35.42274,33.69566],[35.4208,33.69465],[35.42079,33.69394],[35.41685,33.68938],[35.42059,33.68873],[35.42283,33.68923],[35.4272,33.68874],[35.42721,33.68932],[35.42779,33.68923],[35.42867,33.69004],[35.4291,33.68987],[35.42896,33.68816],[35.42969,33.68688],[35.43133,33.68756],[35.43755,33.68749],[35.43728,33.68972],[35.43675,33.68994],[35.43686,33.69215],[35.43773,33.69412],[35.44193,33.69515],[35.44169,33.69776],[35.44017,33.69886],[35.44019,33.69981],[35.44474,33.70364],[35.44556,33.70319],[35.44922,33.70302],[35.4504,33.70233],[35.45409,33.7021],[35.45406,33.70159],[35.4573,33.70143],[35.4574,33.70287],[35.45916,33.70165],[35.45999,33.70193],[35.46129,33.70153],[35.46101,33.70345],[35.46135,33.70406],[35.46372,33.7032],[35.46511,33.70437],[35.4665,33.70466],[35.46755,33.70435],[35.46803,33.70336],[35.46702,33.70247],[35.46739,33.70154],[35.46926,33.70094],[35.47137,33.70127],[35.4735,33.69849],[35.47652,33.69846],[35.47838,33.69983],[35.48015,33.69932],[35.48245,33.69928],[35.47834,33.70007],[35.47709,33.69903],[35.47491,33.69869],[35.47226,33.70121],[35.46846,33.70198],[35.46829,33.70273],[35.46896,33.70327],[35.46728,33.7048],[35.46473,33.70475],[35.46565,33.70645],[35.4635,33.70942],[35.46416,33.70929],[35.46379,33.71032],[35.46538,33.71087],[35.46544,33.71134],[35.46277,33.71307],[35.46155,33.71527],[35.46376,33.71548],[35.46667,33.71671],[35.46968,33.7169],[35.47164,33.71515],[35.47295,33.71495],[35.47508,33.71528],[35.47725,33.71709],[35.47929,33.71711],[35.47933,33.72038],[35.47691,33.72048],[35.47484,33.71994],[35.47268,33.71905],[35.47135,33.71774],[35.46987,33.72205],[35.46876,33.72372],[35.47403,33.72308],[35.47421,33.7275],[35.47738,33.72776],[35.47948,33.72696],[35.47992,33.72818],[35.47837,33.72868],[35.47819,33.72935],[35.47627,33.7298],[35.47355,33.72893],[35.47239,33.73036],[35.46893,33.73059],[35.46713,33.73237],[35.46439,33.73217],[35.46253,33.73332],[35.46234,33.73389],[35.46192,33.73368],[35.46303,33.73469]]]},"properties":{"entity_type":"village_survey_summary","name_en":"Damour","name_ar":"الدامور","district_en":"Chouf","district_ar":"الشوف","adm3_pcode":"23111","adm2_pcode":"LB33","n_respondents":6,"instruments":["chouf_2026"],"geom_origin":"cadastral_unit_polygon","spatial_precision":"cadastral_unit","context":{"fire_detections_5km":7,"protected_area_km":13.4},"mode__owns_land":"yes","mode__land_size_band":"gt_2_ha","mode__soil_types":"loamy","mode__crop_groups":"tropical_fruits","mode__water_sources":"well","mode__water_availability":"sometimes","mode__water_scarcity":"yes","mode__irrigation_need_change":"increase","mode__energy_sources":"solar","mode__production_level":"medium","mode__coop_member":"no","mode__homes_trad_food":"few","mode__seed_criteria":"productivity","mode__seed_sources":"shop","mode__seed_challenges":"high_cost","mode__traditional_seed_knowledge":"no","mode__soil_enhancers":"chemical","mode__chem_fertilizer_reliance":"partial","mode__pest_control":"chemical","mode__pesticide_reliance":"total","mode__marketing_challenges":"low_prices","mode__climate_change_noticed":"yes","mode__climate_changes":"temperature_rise","mode__climate_impacts":"production_decrease","mode__info_sources":"extension_agents","mode__raises_poultry":"yes","mode__farmer_type":"type_a","mode__low_input_practices":"yes","indicators":{"owns_land":{"n_answered":6,"status_counts":{},"counts":{"yes":5,"no":1},"suppressed":null,"mode":"yes"},"land_size_band":{"n_answered":6,"status_counts":{},"counts":{"lt_5_dunum":1,"lt_1_ha":1,"gt_1_ha":1,"gt_2_ha":3},"suppressed":null,"mode":"gt_2_ha"},"soil_types":{"n_answered":6,"status_counts":{},"counts":{"loamy":3,"clay":0,"sandy":2,"calcareous":0,"acidic":1},"suppressed":null,"mode":"loamy"},"crop_groups":{"n_answered":6,"status_counts":{},"counts":{"olives":0,"apples_pears":0,"stone_fruits":0,"citrus":1,"tropical_fruits":5,"grapes":0,"other_fruits":1,"nuts_pine":0,"vegetables":1,"legumes":0,"cereals_fodder":0,"herbs":0,"nursery":0,"other":0},"suppressed":null,"mode":"tropical_fruits"},"water_sources":{"n_answered":6,"status_counts":{},"counts":{"rain":0,"river":2,"well":4,"tanker":0,"canal":3,"spring":0,"public_network":0,"storage":0,"other":0},"suppressed":null,"mode":"well"},"water_availability":{"n_answered":6,"status_counts":{},"counts":{"always":0,"sometimes":4,"rarely":1,"never":1},"suppressed":null,"mode":"sometimes"},"water_scarcity":{"n_answered":6,"status_counts":{},"counts":{"yes":5,"no":1},"suppressed":null,"mode":"yes"},"irrigation_need_change":{"n_answered":6,"status_counts":{},"counts":{"increase":3,"decrease":2,"no_change":0,"unsure":1},"suppressed":null,"mode":"increase"},"energy_sources":{"n_answered":6,"status_counts":{},"counts":{"manual":1,"grid":2,"diesel":2,"solar":4,"gasoline":0,"gravity":0,"none":0,"other":0},"suppressed":null,"mode":"solar"},"production_level":{"n_answered":6,"status_counts":{},"counts":{"small":2,"medium":3,"large":1},"suppressed":null,"mode":"medium"},"coop_member":{"n_answered":6,"status_counts":{},"counts":{"yes":0,"no":6},"suppressed":null,"mode":"no"},"homes_trad_food":{"n_answered":6,"status_counts":{},"counts":{"few":4,"some":0,"most":2,"almost_all":0},"suppressed":null,"mode":"few"},"seed_criteria":{"n_answered":6,"status_counts":{},"counts":{"price":3,"productivity":5,"pest_resistance":5,"all":0,"none":0},"suppressed":null,"mode":"productivity"},"seed_sources":{"n_answered":6,"status_counts":{},"counts":{"shop":5,"nursery":0,"neighbour":1,"association":0,"own_harvest":0,"other":0},"suppressed":null,"mode":"shop"},"seed_challenges":{"n_answered":6,"status_counts":{},"counts":{"high_cost":4,"low_availability":3,"unreliable_suppliers":0,"unsuitable":1,"none":1},"suppressed":null,"mode":"high_cost"},"traditional_seed_knowledge":{"n_answered":6,"status_counts":{},"counts":{"yes":1,"no":5},"suppressed":null,"mode":"no"},"soil_enhancers":{"n_answered":6,"status_counts":{},"counts":{"chemical":5,"compost":2,"biofertilizer":2,"manure":5,"none":0},"suppressed":null,"mode":"chemical"},"chem_fertilizer_reliance":{"n_answered":6,"status_counts":{},"counts":{"not_used":1,"partial":3,"total":2},"suppressed":null,"mode":"partial"},"pest_control":{"n_answered":6,"status_counts":{},"counts":{"chemical":5,"biological":1,"physical":2,"local":0},"suppressed":null,"mode":"chemical"},"pesticide_reliance":{"n_answered":6,"status_counts":{},"counts":{"not_used":1,"partial":2,"total":3},"suppressed":null,"mode":"total"},"marketing_challenges":{"n_answered":6,"status_counts":{},"counts":{"low_prices":5,"weak_demand":1,"far_markets":2,"no_transport":2,"poor_packaging":2,"other":0},"suppressed":null,"mode":"low_prices"},"logistics_challenges":{"n_answered":4,"status_counts":{"not_provided":2},"counts":null,"suppressed":"fewer_than_k_answers","mode":null},"climate_change_noticed":{"n_answered":6,"status_counts":{},"counts":{"yes":6,"no":0},"suppressed":null,"mode":"yes"},"climate_changes":{"n_answered":6,"status_counts":{},"counts":{"temperature_rise":6,"rainfall_decrease":5,"heatwaves":5,"frost":1,"less_snow":0,"other":0},"suppressed":null,"mode":"temperature_rise"},"climate_impacts":{"n_answered":6,"status_counts":{},"counts":{"production_decrease":6,"season_delay":3,"pests_diseases":6,"pollination":3,"no_major_impact":0,"other":0},"suppressed":null,"mode":"production_decrease"},"info_sources":{"n_answered":6,"status_counts":{},"counts":{"social_media":3,"extension_agents":4,"supply_shops":3,"television":0,"other":0},"suppressed":null,"mode":"extension_agents"},"raises_poultry":{"n_answered":6,"status_counts":{},"counts":{"yes":4,"no":2},"suppressed":null,"mode":"yes"},"poultry_purpose":{"n_answered":4,"status_counts":{"not_applicable":2},"counts":null,"suppressed":"fewer_than_k_answers","mode":null},"farmer_type":{"n_answered":6,"status_counts":{},"counts":{"type_a":3,"type_b":1,"type_c":1,"type_d":1},"suppressed":null,"mode":"type_a"},"low_input_practices":{"n_answered":6,"status_counts":{},"counts":{"yes":6,"no":0},"suppressed":null,"mode":"yes"}}}},{"type":"Feature","id":"village:23311","geometry":{"type":"Polygon","coordinates":[[[35.41681,33.60119],[35.41517,33.60047],[35.41359,33.60048],[35.41119,33.60179],[35.40855,33.60143],[35.40513,33.60305],[35.40584,33.60179],[35.40485,33.60041],[35.40431,33.59824],[35.40498,33.59623],[35.40071,33.59665],[35.39923,33.59337],[35.39778,33.59224],[35.3979,33.59092],[35.40048,33.58866],[35.40038,33.58723],[35.39936,33.58751],[35.39875,33.58685],[35.40021,33.58567],[35.40423,33.58455],[35.40486,33.5823],[35.406,33.58144],[35.40731,33.58156],[35.41051,33.58378],[35.41206,33.5832],[35.41134,33.58173],[35.41199,33.58123],[35.41518,33.58128],[35.41672,33.58078],[35.4179,33.5811],[35.41787,33.58339],[35.41941,33.58562],[35.42268,33.58792],[35.42446,33.59007],[35.428,33.59294],[35.42742,33.59352],[35.42802,33.59421],[35.42779,33.59563],[35.42721,33.59579],[35.42418,33.59442],[35.42366,33.59364],[35.42053,33.59243],[35.42045,33.59302],[35.42097,33.59304],[35.42078,33.5948],[35.42004,33.59564],[35.41923,33.59526],[35.41992,33.59689],[35.41921,33.59954],[35.41826,33.59943],[35.4177,33.6004],[35.41799,33.60088],[35.41681,33.60119]]]},"properties":{"entity_type":"village_survey_summary","name_en":"Aalmane Ech-Chouf","name_ar":"علمان الشوف","district_en":"Chouf","district_ar":"الشوف","adm3_pcode":"23311","adm2_pcode":"LB33","n_respondents":15,"instruments":["chouf_2026"],"geom_origin":"cadastral_unit_polygon","spatial_precision":"cadastral_unit","context":{"fire_detections_5km":1,"protected_area_km":12.1},"mode__owns_land":"yes","mode__land_size_band":"lt_5_dunum","mode__soil_types":"loamy","mode__crop_groups":"citrus","mode__water_sources":"well","mode__water_availability":"always","mode__water_scarcity":"no","mode__irrigation_need_change":"increase","mode__energy_sources":"diesel","mode__production_level":"medium","mode__coop_member":"no","mode__homes_trad_food":"few","mode__seed_criteria":"productivity","mode__seed_sources":"shop","mode__seed_challenges":"high_cost","mode__traditional_seed_knowledge":"no","mode__soil_enhancers":"chemical","mode__chem_fertilizer_reliance":"total","mode__pest_control":"chemical","mode__pesticide_reliance":"total","mode__marketing_challenges":"low_prices","mode__logistics_challenges":"high_transport_cost","mode__climate_change_noticed":"yes","mode__climate_changes":"temperature_rise","mode__climate_impacts":"production_decrease","mode__info_sources":"extension_agents","mode__raises_poultry":"no","mode__poultry_purpose":"home_consumption","mode__farmer_type":"type_a","mode__low_input_practices":"no","indicators":{"owns_land":{"n_answered":15,"status_counts":{},"counts":{"yes":15,"no":0},"suppressed":null,"mode":"yes"},"land_size_band":{"n_answered":15,"status_counts":{},"counts":{"lt_5_dunum":13,"lt_1_ha":0,"gt_1_ha":1,"gt_2_ha":1},"suppressed":null,"mode":"lt_5_dunum"},"soil_types":{"n_answered":15,"status_counts":{},"counts":{"loamy":7,"clay":5,"sandy":2,"calcareous":1,"acidic":0},"suppressed":null,"mode":"loamy"},"crop_groups":{"n_answered":14,"status_counts":{"invalid":1},"counts":{"olives":0,"apples_pears":0,"stone_fruits":0,"citrus":12,"tropical_fruits":12,"grapes":0,"other_fruits":0,"nuts_pine":0,"vegetables":0,"legumes":0,"cereals_fodder":0,"herbs":0,"nursery":0,"other":0},"suppressed":null,"mode":"citrus"},"water_sources":{"n_answered":15,"status_counts":{},"counts":{"rain":0,"river":0,"well":14,"tanker":1,"canal":1,"spring":0,"public_network":0,"storage":1,"other":0},"suppressed":null,"mode":"well"},"water_availability":{"n_answered":15,"status_counts":{},"counts":{"always":8,"sometimes":4,"rarely":2,"never":1},"suppressed":null,"mode":"always"},"water_scarcity":{"n_answered":15,"status_counts":{},"counts":{"yes":2,"no":13},"suppressed":null,"mode":"no"},"irrigation_need_change":{"n_answered":15,"status_counts":{},"counts":{"increase":10,"decrease":0,"no_change":4,"unsure":1},"suppressed":null,"mode":"increase"},"energy_sources":{"n_answered":15,"status_counts":{},"counts":{"manual":0,"grid":6,"diesel":8,"solar":2,"gasoline":0,"gravity":0,"none":0,"other":0},"suppressed":null,"mode":"diesel"},"production_level":{"n_answered":15,"status_counts":{},"counts":{"small":2,"medium":12,"large":1},"suppressed":null,"mode":"medium"},"coop_member":{"n_answered":15,"status_counts":{},"counts":{"yes":0,"no":15},"suppressed":null,"mode":"no"},"homes_trad_food":{"n_answered":15,"status_counts":{},"counts":{"few":6,"some":2,"most":2,"almost_all":5},"suppressed":null,"mode":"few"},"seed_criteria":{"n_answered":15,"status_counts":{},"counts":{"price":9,"productivity":11,"pest_resistance":5,"all":0,"none":3},"suppressed":null,"mode":"productivity"},"seed_sources":{"n_answered":13,"status_counts":{"not_provided":2},"counts":{"shop":12,"nursery":0,"neighbour":1,"association":0,"own_harvest":0,"other":0},"suppressed":null,"mode":"shop"},"seed_challenges":{"n_answered":15,"status_counts":{},"counts":{"high_cost":6,"low_availability":2,"unreliable_suppliers":3,"unsuitable":1,"none":5},"suppressed":null,"mode":"high_cost"},"traditional_seed_knowledge":{"n_answered":15,"status_counts":{},"counts":{"yes":0,"no":15},"suppressed":null,"mode":"no"},"soil_enhancers":{"n_answered":15,"status_counts":{},"counts":{"chemical":15,"compost":2,"biofertilizer":0,"manure":2,"none":0},"suppressed":null,"mode":"chemical"},"chem_fertilizer_reliance":{"n_answered":15,"status_counts":{},"counts":{"not_used":0,"partial":7,"total":8},"suppressed":null,"mode":"total"},"pest_control":{"n_answered":15,"status_counts":{},"counts":{"chemical":15,"biological":0,"physical":0,"local":0},"suppressed":null,"mode":"chemical"},"pesticide_reliance":{"n_answered":15,"status_counts":{},"counts":{"not_used":0,"partial":6,"total":9},"suppressed":null,"mode":"total"},"marketing_challenges":{"n_answered":15,"status_counts":{},"counts":{"low_prices":11,"weak_demand":4,"far_markets":7,"no_transport":3,"poor_packaging":0,"other":0},"suppressed":null,"mode":"low_prices"},"logistics_challenges":{"n_answered":14,"status_counts":{"not_provided":1},"counts":{"high_transport_cost":10,"no_paved_roads":2,"no_transport":4,"other":0},"suppressed":null,"mode":"high_transport_cost"},"climate_change_noticed":{"n_answered":15,"status_counts":{},"counts":{"yes":15,"no":0},"suppressed":null,"mode":"yes"},"climate_changes":{"n_answered":15,"status_counts":{},"counts":{"temperature_rise":10,"rainfall_decrease":10,"heatwaves":5,"frost":3,"less_snow":0,"other":0},"suppressed":null,"mode":"temperature_rise"},"climate_impacts":{"n_answered":15,"status_counts":{},"counts":{"production_decrease":10,"season_delay":3,"pests_diseases":9,"pollination":2,"no_major_impact":0,"other":1},"suppressed":null,"mode":"production_decrease"},"info_sources":{"n_answered":14,"status_counts":{"not_provided":1},"counts":{"social_media":5,"extension_agents":8,"supply_shops":7,"television":0,"other":0},"suppressed":null,"mode":"extension_agents"},"raises_poultry":{"n_answered":15,"status_counts":{},"counts":{"yes":6,"no":9},"suppressed":null,"mode":"no"},"poultry_purpose":{"n_answered":6,"status_counts":{"not_applicable":9},"counts":{"home_consumption":6,"local_sale":1,"gifts":0},"suppressed":null,"mode":"home_consumption"},"farmer_type":{"n_answered":15,"status_counts":{},"counts":{"type_a":15,"type_b":0,"type_c":0,"type_d":0},"suppressed":null,"mode":"type_a"},"low_input_practices":{"n_answered":15,"status_counts":{},"counts":{"yes":3,"no":12},"suppressed":null,"mode":"no"}}}},{"type":"Feature","id":"village:23413","geometry":{"type":"Polygon","coordinates":[[[35.5783,33.71012],[35.57503,33.70955],[35.57331,33.70776],[35.56824,33.70688],[35.56671,33.70598],[35.56396,33.70543],[35.56368,33.70456],[35.56221,33.70412],[35.55803,33.70415],[35.55599,33.70294],[35.55501,33.70306],[35.55281,33.70557],[35.55047,33.70437],[35.54894,33.70256],[35.54625,33.70138],[35.54537,33.70164],[35.54355,33.70027],[35.54076,33.69961],[35.537,33.69631],[35.53622,33.69705],[35.53562,33.69681],[35.53551,33.69593],[35.53265,33.6956],[35.53101,33.69491],[35.53122,33.69438],[35.53066,33.69379],[35.52892,33.69336],[35.52951,33.69288],[35.53106,33.69298],[35.53069,33.69211],[35.53097,33.69131],[35.53046,33.69104],[35.53257,33.69037],[35.53318,33.68909],[35.53554,33.68883],[35.53794,33.68934],[35.53836,33.68921],[35.53846,33.68779],[35.54259,33.68851],[35.54516,33.68788],[35.55128,33.68826],[35.5498,33.68483],[35.55295,33.68474],[35.55408,33.68561],[35.55462,33.68529],[35.55574,33.68662],[35.55811,33.68736],[35.56013,33.68718],[35.56113,33.68643],[35.56245,33.6884],[35.56348,33.68897],[35.564,33.68866],[35.56572,33.68966],[35.56527,33.68873],[35.56629,33.68842],[35.56649,33.68771],[35.56732,33.68771],[35.5686,33.6862],[35.5684,33.68913],[35.56932,33.6892],[35.57089,33.69065],[35.57115,33.69028],[35.57208,33.69107],[35.57297,33.69092],[35.57347,33.69201],[35.57432,33.69203],[35.57463,33.69271],[35.57376,33.694],[35.57716,33.69528],[35.57561,33.69515],[35.57474,33.69566],[35.57814,33.69847],[35.58172,33.6987],[35.58365,33.69823],[35.58535,33.69889],[35.58346,33.69929],[35.58218,33.70082],[35.58303,33.7006],[35.58268,33.70126],[35.58005,33.70151],[35.57961,33.70201],[35.58016,33.70235],[35.58129,33.70195],[35.58183,33.7024],[35.58143,33.70294],[35.58059,33.70285],[35.58087,33.70373],[35.58162,33.7041],[35.58277,33.7032],[35.58542,33.70287],[35.58671,33.70321],[35.58809,33.70448],[35.58676,33.70621],[35.58554,33.70636],[35.58557,33.70707],[35.584,33.70696],[35.58385,33.70743],[35.58073,33.70782],[35.58029,33.70833],[35.57687,33.70923],[35.5783,33.71012]]]},"properties":{"entity_type":"village_survey_summary","name_en":"Deir El-Qamar","name_ar":"دير القمر","district_en":"Chouf","district_ar":"الشوف","adm3_pcode":"23413","adm2_pcode":"LB33","n_respondents":5,"instruments":["chouf_2026"],"geom_origin":"cadastral_unit_polygon","spatial_precision":"cadastral_unit","context":{"fire_detections_5km":8,"protected_area_km":6.0},"mode__owns_land":"yes","mode__land_size_band":"lt_5_dunum","mode__soil_types":"loamy","mode__water_availability":"sometimes","mode__water_scarcity":"yes","mode__irrigation_need_change":"increase","mode__energy_sources":"manual","mode__production_level":"small","mode__coop_member":"no","mode__homes_trad_food":"few","mode__seed_criteria":"productivity","mode__seed_sources":"shop","mode__seed_challenges":"low_availability","mode__traditional_seed_knowledge":"no","mode__soil_enhancers":"manure","mode__pest_control":"chemical","mode__climate_change_noticed":"yes","mode__climate_changes":"temperature_rise","mode__climate_impacts":"production_decrease","mode__info_sources":"supply_shops","mode__raises_poultry":"no","mode__farmer_type":"type_c","mode__low_input_practices":"yes","indicators":{"owns_land":{"n_answered":5,"status_counts":{},"counts":{"yes":4,"no":1},"suppressed":null,"mode":"yes"},"land_size_band":{"n_answered":5,"status_counts":{},"counts":{"lt_5_dunum":4,"lt_1_ha":0,"gt_1_ha":1,"gt_2_ha":0},"suppressed":null,"mode":"lt_5_dunum"},"soil_types":{"n_answered":5,"status_counts":{},"counts":{"loamy":3,"clay":1,"sandy":1,"calcareous":0,"acidic":0},"suppressed":null,"mode":"loamy"},"crop_groups":{"n_answered":4,"status_counts":{"not_provided":1},"counts":null,"suppressed":"fewer_than_k_answers","mode":null},"water_sources":{"n_answered":3,"status_counts":{"not_provided":2},"counts":null,"suppressed":"fewer_than_k_answers","mode":null},"water_availability":{"n_answered":5,"status_counts":{},"counts":{"always":0,"sometimes":3,"rarely":1,"never":1},"suppressed":null,"mode":"sometimes"},"water_scarcity":{"n_answered":5,"status_counts":{},"counts":{"yes":5,"no":0},"suppressed":null,"mode":"yes"},"irrigation_need_change":{"n_answered":5,"status_counts":{},"counts":{"increase":5,"decrease":0,"no_change":0,"unsure":0},"suppressed":null,"mode":"increase"},"energy_sources":{"n_answered":5,"status_counts":{},"counts":{"manual":2,"grid":2,"diesel":2,"solar":1,"gasoline":0,"gravity":0,"none":0,"other":0},"suppressed":null,"mode":"manual"},"production_level":{"n_answered":5,"status_counts":{},"counts":{"small":4,"medium":1,"large":0},"suppressed":null,"mode":"small"},"coop_member":{"n_answered":5,"status_counts":{},"counts":{"yes":0,"no":5},"suppressed":null,"mode":"no"},"homes_trad_food":{"n_answered":5,"status_counts":{},"counts":{"few":2,"some":2,"most":1,"almost_all":0},"suppressed":null,"mode":"few"},"seed_criteria":{"n_answered":5,"status_counts":{},"counts":{"price":1,"productivity":5,"pest_resistance":1,"all":0,"none":0},"suppressed":null,"mode":"productivity"},"seed_sources":{"n_answered":5,"status_counts":{},"counts":{"shop":4,"nursery":0,"neighbour":0,"association":0,"own_harvest":3,"other":0},"suppressed":null,"mode":"shop"},"seed_challenges":{"n_answered":5,"status_counts":{},"counts":{"high_cost":2,"low_availability":3,"unreliable_suppliers":1,"unsuitable":1,"none":0},"suppressed":null,"mode":"low_availability"},"traditional_seed_knowledge":{"n_answered":5,"status_counts":{},"counts":{"yes":2,"no":3},"suppressed":null,"mode":"no"},"soil_enhancers":{"n_answered":5,"status_counts":{},"counts":{"chemical":2,"compost":1,"biofertilizer":0,"manure":3,"none":0},"suppressed":null,"mode":"manure"},"chem_fertilizer_reliance":{"n_answered":4,"status_counts":{"not_provided":1},"counts":null,"suppressed":"fewer_than_k_answers","mode":null},"pest_control":{"n_answered":5,"status_counts":{},"counts":{"chemical":4,"biological":1,"physical":1,"local":1},"suppressed":null,"mode":"chemical"},"pesticide_reliance":{"n_answered":4,"status_counts":{"not_provided":1},"counts":null,"suppressed":"fewer_than_k_answers","mode":null},"marketing_challenges":{"n_answered":3,"status_counts":{"not_provided":2},"counts":null,"suppressed":"fewer_than_k_answers","mode":null},"logistics_challenges":{"n_answered":4,"status_counts":{"not_provided":1},"counts":null,"suppressed":"fewer_than_k_answers","mode":null},"climate_change_noticed":{"n_answered":5,"status_counts":{},"counts":{"yes":5,"no":0},"suppressed":null,"mode":"yes"},"climate_changes":{"n_answered":5,"status_counts":{},"counts":{"temperature_rise":5,"rainfall_decrease":4,"heatwaves":3,"frost":1,"less_snow":0,"other":0},"suppressed":null,"mode":"temperature_rise"},"climate_impacts":{"n_answered":5,"status_counts":{},"counts":{"production_decrease":5,"season_delay":3,"pests_diseases":4,"pollination":0,"no_major_impact":0,"other":0},"suppressed":null,"mode":"production_decrease"},"info_sources":{"n_answered":5,"status_counts":{},"counts":{"social_media":2,"extension_agents":2,"supply_shops":3,"television":0,"other":0},"suppressed":null,"mode":"supply_shops"},"raises_poultry":{"n_answered":5,"status_counts":{},"counts":{"yes":1,"no":4},"suppressed":null,"mode":"no"},"poultry_purpose":{"n_answered":1,"status_counts":{"not_applicable":4},"counts":null,"suppressed":"fewer_than_k_answers","mode":null},"farmer_type":{"n_answered":5,"status_counts":{},"counts":{"type_a":1,"type_b":0,"type_c":2,"type_d":2},"suppressed":null,"mode":"type_c"},"low_input_practices":{"n_answered":5,"status_counts":{},"counts":{"yes":4,"no":1},"suppressed":null,"mode":"yes"}}}},{"type":"Feature","id":"village:23463","geometry":{"type":"Polygon","coordinates":[[[35.68753,33.72486],[35.68527,33.72408],[35.67739,33.72708],[35.67144,33.72347],[35.66676,33.71955],[35.66568,33.71977],[35.6642,33.717],[35.66423,33.71569],[35.66311,33.71452],[35.66331,33.71401],[35.6619,33.71297],[35.66169,33.71232],[35.6623,33.71178],[35.65951,33.71012],[35.66057,33.7095],[35.66373,33.70922],[35.66401,33.70848],[35.66602,33.70921],[35.66978,33.71323],[35.66988,33.71416],[35.66906,33.71523],[35.6778,33.71867],[35.68,33.71906],[35.68649,33.72319],[35.69061,33.72402],[35.68997,33.72447],[35.68931,33.72398],[35.68826,33.72453],[35.68745,33.72426],[35.68753,33.72486]]]},"properties":{"entity_type":"village_survey_summary","name_en":"Ouarhaniyeh","name_ar":"ورهانية","district_en":"Chouf","district_ar":"الشوف","adm3_pcode":"23463","adm2_pcode":"LB33","n_respondents":7,"instruments":["chouf_2026"],"geom_origin":"cadastral_unit_polygon","spatial_precision":"cadastral_unit","context":{"fire_detections_5km":19,"protected_area_km":0.0},"mode__owns_land":"yes","mode__land_size_band":"lt_1_ha","mode__soil_types":"clay","mode__crop_groups":"apples_pears","mode__water_sources":"canal","mode__water_availability":"sometimes","mode__water_scarcity":"yes","mode__irrigation_need_change":"increase","mode__energy_sources":"manual","mode__production_level":"small","mode__coop_member":"no","mode__homes_trad_food":"most","mode__seed_criteria":"pest_resistance","mode__seed_sources":"shop","mode__seed_challenges":"high_cost","mode__traditional_seed_knowledge":"yes","mode__soil_enhancers":"chemical","mode__chem_fertilizer_reliance":"partial","mode__pest_control":"chemical","mode__pesticide_reliance":"total","mode__marketing_challenges":"low_prices","mode__logistics_challenges":"high_transport_cost","mode__climate_change_noticed":"yes","mode__climate_changes":"rainfall_decrease","mode__climate_impacts":"pests_diseases","mode__info_sources":"supply_shops","mode__raises_poultry":"yes","mode__farmer_type":"type_b","mode__low_input_practices":"yes","indicators":{"owns_land":{"n_answered":7,"status_counts":{},"counts":{"yes":7,"no":0},"suppressed":null,"mode":"yes"},"land_size_band":{"n_answered":7,"status_counts":{},"counts":{"lt_5_dunum":1,"lt_1_ha":5,"gt_1_ha":1,"gt_2_ha":0},"suppressed":null,"mode":"lt_1_ha"},"soil_types":{"n_answered":7,"status_counts":{},"counts":{"loamy":3,"clay":5,"sandy":0,"calcareous":1,"acidic":0},"suppressed":null,"mode":"clay"},"crop_groups":{"n_answered":7,"status_counts":{},"counts":{"olives":2,"apples_pears":4,"stone_fruits":4,"citrus":1,"tropical_fruits":0,"grapes":0,"other_fruits":1,"nuts_pine":1,"vegetables":2,"legumes":0,"cereals_fodder":0,"herbs":1,"nursery":0,"other":0},"suppressed":null,"mode":"apples_pears"},"water_sources":{"n_answered":7,"status_counts":{},"counts":{"rain":1,"river":1,"well":1,"tanker":1,"canal":4,"spring":0,"public_network":0,"storage":1,"other":0},"suppressed":null,"mode":"canal"},"water_availability":{"n_answered":7,"status_counts":{},"counts":{"always":0,"sometimes":3,"rarely":2,"never":2},"suppressed":null,"mode":"sometimes"},"water_scarcity":{"n_answered":7,"status_counts":{},"counts":{"yes":6,"no":1},"suppressed":null,"mode":"yes"},"irrigation_need_change":{"n_answered":7,"status_counts":{},"counts":{"increase":4,"decrease":1,"no_change":1,"unsure":1},"suppressed":null,"mode":"increase"},"energy_sources":{"n_answered":7,"status_counts":{},"counts":{"manual":5,"grid":2,"diesel":0,"solar":0,"gasoline":0,"gravity":0,"none":0,"other":0},"suppressed":null,"mode":"manual"},"production_level":{"n_answered":7,"status_counts":{},"counts":{"small":3,"medium":3,"large":1},"suppressed":null,"mode":"small"},"coop_member":{"n_answered":7,"status_counts":{},"counts":{"yes":1,"no":6},"suppressed":null,"mode":"no"},"homes_trad_food":{"n_answered":7,"status_counts":{},"counts":{"few":0,"some":2,"most":5,"almost_all":0},"suppressed":null,"mode":"most"},"seed_criteria":{"n_answered":7,"status_counts":{},"counts":{"price":3,"productivity":4,"pest_resistance":5,"all":0,"none":0},"suppressed":null,"mode":"pest_resistance"},"seed_sources":{"n_answered":7,"status_counts":{},"counts":{"shop":5,"nursery":1,"neighbour":1,"association":0,"own_harvest":4,"other":0},"suppressed":null,"mode":"shop"},"seed_challenges":{"n_answered":7,"status_counts":{},"counts":{"high_cost":5,"low_availability":3,"unreliable_suppliers":3,"unsuitable":1,"none":0},"suppressed":null,"mode":"high_cost"},"traditional_seed_knowledge":{"n_answered":7,"status_counts":{},"counts":{"yes":4,"no":3},"suppressed":null,"mode":"yes"},"soil_enhancers":{"n_answered":7,"status_counts":{},"counts":{"chemical":5,"compost":0,"biofertilizer":2,"manure":4,"none":0},"suppressed":null,"mode":"chemical"},"chem_fertilizer_reliance":{"n_answered":7,"status_counts":{},"counts":{"not_used":1,"partial":6,"total":0},"suppressed":null,"mode":"partial"},"pest_control":{"n_answered":7,"status_counts":{},"counts":{"chemical":6,"biological":0,"physical":1,"local":1},"suppressed":null,"mode":"chemical"},"pesticide_reliance":{"n_answered":7,"status_counts":{},"counts":{"not_used":1,"partial":1,"total":5},"suppressed":null,"mode":"total"},"marketing_challenges":{"n_answered":7,"status_counts":{},"counts":{"low_prices":7,"weak_demand":1,"far_markets":3,"no_transport":1,"poor_packaging":1,"other":0},"suppressed":null,"mode":"low_prices"},"logistics_challenges":{"n_answered":6,"status_counts":{"not_provided":1},"counts":{"high_transport_cost":5,"no_paved_roads":1,"no_transport":2,"other":0},"suppressed":null,"mode":"high_transport_cost"},"climate_change_noticed":{"n_answered":7,"status_counts":{},"counts":{"yes":7,"no":0},"suppressed":null,"mode":"yes"},"climate_changes":{"n_answered":7,"status_counts":{},"counts":{"temperature_rise":5,"rainfall_decrease":6,"heatwaves":4,"frost":3,"less_snow":0,"other":0},"suppressed":null,"mode":"rainfall_decrease"},"climate_impacts":{"n_answered":7,"status_counts":{},"counts":{"production_decrease":5,"season_delay":2,"pests_diseases":7,"pollination":2,"no_major_impact":0,"other":0},"suppressed":null,"mode":"pests_diseases"},"info_sources":{"n_answered":7,"status_counts":{},"counts":{"social_media":3,"extension_agents":2,"supply_shops":4,"television":1,"other":0},"suppressed":null,"mode":"supply_shops"},"raises_poultry":{"n_answered":7,"status_counts":{},"counts":{"yes":4,"no":3},"suppressed":null,"mode":"yes"},"poultry_purpose":{"n_answered":4,"status_counts":{"not_applicable":3},"counts":null,"suppressed":"fewer_than_k_answers","mode":null},"farmer_type":{"n_answered":7,"status_counts":{},"counts":{"type_a":1,"type_b":5,"type_c":0,"type_d":1},"suppressed":null,"mode":"type_b"},"low_input_practices":{"n_answered":7,"status_counts":{},"counts":{"yes":6,"no":1},"suppressed":null,"mode":"yes"}}}},{"type":"Feature","id":"village:23511","geometry":{"type":"Polygon","coordinates":[[[35.56521,33.68899],[35.56572,33.68966],[35.564,33.68866],[35.56348,33.68897],[35.56263,33.68852],[35.56113,33.68643],[35.56013,33.68718],[35.55811,33.68736],[35.55574,33.68662],[35.55462,33.68529],[35.55408,33.68561],[35.55273,33.68468],[35.55046,33.68503],[35.54677,33.6847],[35.54474,33.68277],[35.5425,33.6823],[35.54242,33.68159],[35.54138,33.68088],[35.53864,33.68086],[35.53754,33.67919],[35.53884,33.67824],[35.53956,33.67681],[35.53714,33.67514],[35.53879,33.67432],[35.53952,33.67329],[35.53935,33.67291],[35.54097,33.67217],[35.53914,33.67231],[35.53869,33.6709],[35.53718,33.67143],[35.53453,33.67087],[35.53333,33.67131],[35.5307,33.67015],[35.52866,33.6707],[35.52815,33.66959],[35.52724,33.66902],[35.526,33.67029],[35.52437,33.6709],[35.52338,33.67006],[35.5242,33.66912],[35.52381,33.66765],[35.52279,33.66692],[35.52115,33.66342],[35.5195,33.66144],[35.5201,33.65996],[35.52133,33.65953],[35.52132,33.65894],[35.5236,33.65977],[35.52316,33.65777],[35.52259,33.65703],[35.5191,33.65701],[35.51714,33.65534],[35.51817,33.65474],[35.51972,33.65254],[35.52226,33.65249],[35.52507,33.65131],[35.52508,33.65079],[35.52666,33.65073],[35.52584,33.65038],[35.52754,33.6498],[35.52876,33.64876],[35.52848,33.64988],[35.52903,33.64888],[35.53057,33.64835],[35.53213,33.64827],[35.53234,33.65031],[35.53319,33.64912],[35.53704,33.64737],[35.53653,33.64679],[35.53757,33.6461],[35.53811,33.64626],[35.53908,33.64938],[35.54091,33.65033],[35.54037,33.6509],[35.5411,33.65137],[35.54076,33.65228],[35.54114,33.65281],[35.54243,33.65224],[35.5451,33.6526],[35.54653,33.65445],[35.54833,33.65527],[35.54807,33.65609],[35.54906,33.65795],[35.55164,33.65921],[35.55601,33.65996],[35.55572,33.66075],[35.55462,33.66137],[35.55482,33.66227],[35.55436,33.66311],[35.55579,33.66443],[35.55848,33.66841],[35.56197,33.66837],[35.563,33.66903],[35.56546,33.66889],[35.56564,33.66933],[35.56567,33.66872],[35.56612,33.66863],[35.56615,33.66917],[35.56664,33.66922],[35.56595,33.67064],[35.56736,33.66985],[35.56865,33.67088],[35.56938,33.67327],[35.5704,33.67424],[35.57184,33.67473],[35.57387,33.67461],[35.57497,33.67542],[35.57834,33.67567],[35.5773,33.67775],[35.57544,33.67855],[35.57878,33.6793],[35.58006,33.68006],[35.58084,33.68127],[35.58008,33.68125],[35.58071,33.68232],[35.58049,33.68332],[35.57849,33.68147],[35.57846,33.68347],[35.57722,33.68342],[35.57707,33.68436],[35.5761,33.68414],[35.57666,33.68546],[35.57621,33.68669],[35.57606,33.68616],[35.57556,33.6864],[35.57522,33.68593],[35.57102,33.68543],[35.57115,33.68649],[35.56965,33.68809],[35.56844,33.68822],[35.5686,33.6862],[35.56748,33.68758],[35.56649,33.68771],[35.56629,33.68842],[35.56521,33.68899]]]},"properties":{"entity_type":"village_survey_summary","name_en":"Baaqline","name_ar":"بعقلين","district_en":"Chouf","district_ar":"الشوف","adm3_pcode":"23511","adm2_pcode":"LB33","n_respondents":5,"instruments":["chouf_2026"],"geom_origin":"cadastral_unit_polygon","spatial_precision":"cadastral_unit","context":{"fire_detections_5km":8,"protected_area_km":4.5},"mode__owns_land":"yes","mode__land_size_band":"lt_5_dunum","mode__soil_types":"calcareous","mode__crop_groups":"vegetables","mode__water_sources":"public_network","mode__water_availability":"sometimes","mode__water_scarcity":"yes","mode__irrigation_need_change":"increase","mode__energy_sources":"none","mode__production_level":"medium","mode__coop_member":"no","mode__homes_trad_food":"most","mode__seed_criteria":"productivity","mode__seed_sources":"shop","mode__seed_challenges":"high_cost","mode__traditional_seed_knowledge":"yes","mode__soil_enhancers":"manure","mode__chem_fertilizer_reliance":"partial","mode__pest_control":"chemical","mode__pesticide_reliance":"partial","mode__climate_change_noticed":"yes","mode__climate_changes":"rainfall_decrease","mode__climate_impacts":"production_decrease","mode__info_sources":"extension_agents","mode__raises_poultry":"no","mode__farmer_type":"type_a","mode__low_input_practices":"yes","indicators":{"owns_land":{"n_answered":5,"status_counts":{},"counts":{"yes":4,"no":1},"suppressed":null,"mode":"yes"},"land_size_band":{"n_answered":5,"status_counts":{},"counts":{"lt_5_dunum":2,"lt_1_ha":1,"gt_1_ha":0,"gt_2_ha":2},"suppressed":null,"mode":"lt_5_dunum"},"soil_types":{"n_answered":5,"status_counts":{},"counts":{"loamy":1,"clay":1,"sandy":0,"calcareous":2,"acidic":1},"suppressed":null,"mode":"calcareous"},"crop_groups":{"n_answered":5,"status_counts":{},"counts":{"olives":1,"apples_pears":0,"stone_fruits":0,"citrus":0,"tropical_fruits":0,"grapes":0,"other_fruits":0,"nuts_pine":0,"vegetables":3,"legumes":1,"cereals_fodder":1,"herbs":0,"nursery":0,"other":0},"suppressed":null,"mode":"vegetables"},"water_sources":{"n_answered":5,"status_counts":{},"counts":{"rain":0,"river":1,"well":1,"tanker":0,"canal":0,"spring":0,"public_network":3,"storage":0,"other":0},"suppressed":null,"mode":"public_network"},"water_availability":{"n_answered":5,"status_counts":{},"counts":{"always":1,"sometimes":2,"rarely":0,"never":2},"suppressed":null,"mode":"sometimes"},"water_scarcity":{"n_answered":5,"status_counts":{},"counts":{"yes":5,"no":0},"suppressed":null,"mode":"yes"},"irrigation_need_change":{"n_answered":5,"status_counts":{},"counts":{"increase":4,"decrease":0,"no_change":1,"unsure":0},"suppressed":null,"mode":"increase"},"energy_sources":{"n_answered":5,"status_counts":{},"counts":{"manual":1,"grid":0,"diesel":1,"solar":1,"gasoline":0,"gravity":0,"none":2,"other":0},"suppressed":null,"mode":"none"},"production_level":{"n_answered":5,"status_counts":{},"counts":{"small":1,"medium":3,"large":1},"suppressed":null,"mode":"medium"},"coop_member":{"n_answered":5,"status_counts":{},"counts":{"yes":0,"no":5},"suppressed":null,"mode":"no"},"homes_trad_food":{"n_answered":5,"status_counts":{},"counts":{"few":1,"some":1,"most":3,"almost_all":0},"suppressed":null,"mode":"most"},"seed_criteria":{"n_answered":5,"status_counts":{},"counts":{"price":2,"productivity":5,"pest_resistance":3,"all":0,"none":0},"suppressed":null,"mode":"productivity"},"seed_sources":{"n_answered":5,"status_counts":{},"counts":{"shop":5,"nursery":0,"neighbour":0,"association":1,"own_harvest":1,"other":0},"suppressed":null,"mode":"shop"},"seed_challenges":{"n_answered":5,"status_counts":{},"counts":{"high_cost":3,"low_availability":2,"unreliable_suppliers":0,"unsuitable":2,"none":1},"suppressed":null,"mode":"high_cost"},"traditional_seed_knowledge":{"n_answered":5,"status_counts":{},"counts":{"yes":3,"no":2},"suppressed":null,"mode":"yes"},"soil_enhancers":{"n_answered":5,"status_counts":{},"counts":{"chemical":2,"compost":3,"biofertilizer":1,"manure":4,"none":0},"suppressed":null,"mode":"manure"},"chem_fertilizer_reliance":{"n_answered":5,"status_counts":{},"counts":{"not_used":1,"partial":4,"total":0},"suppressed":null,"mode":"partial"},"pest_control":{"n_answered":5,"status_counts":{},"counts":{"chemical":5,"biological":0,"physical":0,"local":0},"suppressed":null,"mode":"chemical"},"pesticide_reliance":{"n_answered":5,"status_counts":{},"counts":{"not_used":1,"partial":3,"total":1},"suppressed":null,"mode":"partial"},"marketing_challenges":{"n_answered":2,"status_counts":{"not_provided":3},"counts":null,"suppressed":"fewer_than_k_answers","mode":null},"logistics_challenges":{"n_answered":3,"status_counts":{"not_provided":2},"counts":null,"suppressed":"fewer_than_k_answers","mode":null},"climate_change_noticed":{"n_answered":5,"status_counts":{},"counts":{"yes":5,"no":0},"suppressed":null,"mode":"yes"},"climate_changes":{"n_answered":5,"status_counts":{},"counts":{"temperature_rise":4,"rainfall_decrease":5,"heatwaves":2,"frost":1,"less_snow":0,"other":0},"suppressed":null,"mode":"rainfall_decrease"},"climate_impacts":{"n_answered":5,"status_counts":{},"counts":{"production_decrease":4,"season_delay":4,"pests_diseases":2,"pollination":0,"no_major_impact":0,"other":0},"suppressed":null,"mode":"production_decrease"},"info_sources":{"n_answered":5,"status_counts":{},"counts":{"social_media":3,"extension_agents":4,"supply_shops":2,"television":0,"other":0},"suppressed":null,"mode":"extension_agents"},"raises_poultry":{"n_answered":5,"status_counts":{},"counts":{"yes":2,"no":3},"suppressed":null,"mode":"no"},"poultry_purpose":{"n_answered":2,"status_counts":{"not_applicable":3},"counts":null,"suppressed":"fewer_than_k_answers","mode":null},"farmer_type":{"n_answered":5,"status_counts":{},"counts":{"type_a":2,"type_b":2,"type_c":1,"type_d":0},"suppressed":null,"mode":"type_a"},"low_input_practices":{"n_answered":5,"status_counts":{},"counts":{"yes":5,"no":0},"suppressed":null,"mode":"yes"}}}},{"type":"Feature","id":"village:23643","geometry":{"type":"Polygon","coordinates":[[[35.60018,33.65901],[35.59756,33.65949],[35.5916,33.65885],[35.5917,33.65937],[35.58955,33.66032],[35.58638,33.66037],[35.58645,33.66097],[35.58579,33.66168],[35.58423,33.66174],[35.58442,33.66102],[35.58546,33.66098],[35.58558,33.65907],[35.58487,33.65759],[35.58311,33.6579],[35.58255,33.65656],[35.58397,33.65586],[35.58211,33.65463],[35.58209,33.65366],[35.58106,33.65349],[35.57588,33.65506],[35.57824,33.65391],[35.57724,33.65282],[35.57806,33.6523],[35.5776,33.65162],[35.58086,33.65104],[35.58109,33.64981],[35.57966,33.64835],[35.58009,33.64807],[35.58377,33.64855],[35.58358,33.6483],[35.58545,33.647],[35.58802,33.64594],[35.58903,33.64442],[35.5888,33.64372],[35.58965,33.64287],[35.59264,33.64246],[35.59311,33.64109],[35.5921,33.63709],[35.59853,33.63579],[35.6003,33.63588],[35.60136,33.63487],[35.60192,33.63897],[35.60155,33.64213],[35.60056,33.64454],[35.60096,33.64709],[35.60246,33.64965],[35.60118,33.65072],[35.59729,33.65123],[35.59456,33.65314],[35.60018,33.65901]]]},"properties":{"entity_type":"village_survey_summary","name_en":"Kahlouniet Ech-Chouf","name_ar":"كحلونية الشوف","district_en":"Chouf","district_ar":"الشوف","adm3_pcode":"23643","adm2_pcode":"LB33","n_respondents":10,"instruments":["chouf_2026"],"geom_origin":"cadastral_unit_polygon","spatial_precision":"cadastral_unit","context":{"fire_detections_5km":6,"protected_area_km":1.0},"mode__owns_land":"yes","mode__land_size_band":"lt_5_dunum","mode__soil_types":"clay","mode__crop_groups":"olives","mode__water_sources":"storage","mode__water_availability":"never","mode__water_scarcity":"yes","mode__irrigation_need_change":"increase","mode__energy_sources":"manual","mode__production_level":"small","mode__coop_member":"no","mode__homes_trad_food":"some","mode__seed_criteria":"productivity","mode__seed_sources":"shop","mode__seed_challenges":"high_cost","mode__traditional_seed_knowledge":"no","mode__soil_enhancers":"manure","mode__chem_fertilizer_reliance":"partial","mode__pest_control":"chemical","mode__pesticide_reliance":"partial","mode__marketing_challenges":"low_prices","mode__logistics_challenges":"high_transport_cost","mode__climate_change_noticed":"yes","mode__climate_changes":"rainfall_decrease","mode__climate_impacts":"production_decrease","mode__info_sources":"social_media","mode__raises_poultry":"yes","mode__poultry_purpose":"home_consumption","mode__farmer_type":"type_d","mode__low_input_practices":"yes","indicators":{"owns_land":{"n_answered":10,"status_counts":{},"counts":{"yes":9,"no":1},"suppressed":null,"mode":"yes"},"land_size_band":{"n_answered":10,"status_counts":{},"counts":{"lt_5_dunum":7,"lt_1_ha":2,"gt_1_ha":0,"gt_2_ha":1},"suppressed":null,"mode":"lt_5_dunum"},"soil_types":{"n_answered":10,"status_counts":{},"counts":{"loamy":3,"clay":5,"sandy":0,"calcareous":2,"acidic":0},"suppressed":null,"mode":"clay"},"crop_groups":{"n_answered":9,"status_counts":{"not_provided":1},"counts":{"olives":5,"apples_pears":1,"stone_fruits":0,"citrus":0,"tropical_fruits":0,"grapes":1,"other_fruits":3,"nuts_pine":0,"vegetables":5,"legumes":1,"cereals_fodder":0,"herbs":1,"nursery":0,"other":0},"suppressed":null,"mode":"olives"},"water_sources":{"n_answered":10,"status_counts":{},"counts":{"rain":6,"river":0,"well":0,"tanker":7,"canal":0,"spring":0,"public_network":0,"storage":8,"other":0},"suppressed":null,"mode":"storage"},"water_availability":{"n_answered":10,"status_counts":{},"counts":{"always":0,"sometimes":3,"rarely":1,"never":6},"suppressed":null,"mode":"never"},"water_scarcity":{"n_answered":10,"status_counts":{},"counts":{"yes":9,"no":1},"suppressed":null,"mode":"yes"},"irrigation_need_change":{"n_answered":10,"status_counts":{},"counts":{"increase":7,"decrease":2,"no_change":0,"unsure":1},"suppressed":null,"mode":"increase"},"energy_sources":{"n_answered":10,"status_counts":{},"counts":{"manual":8,"grid":2,"diesel":0,"solar":0,"gasoline":0,"gravity":0,"none":0,"other":0},"suppressed":null,"mode":"manual"},"production_level":{"n_answered":10,"status_counts":{},"counts":{"small":6,"medium":4,"large":0},"suppressed":null,"mode":"small"},"coop_member":{"n_answered":10,"status_counts":{},"counts":{"yes":1,"no":9},"suppressed":null,"mode":"no"},"homes_trad_food":{"n_answered":10,"status_counts":{},"counts":{"few":2,"some":3,"most":3,"almost_all":2},"suppressed":null,"mode":"some"},"seed_criteria":{"n_answered":10,"status_counts":{},"counts":{"price":7,"productivity":9,"pest_resistance":6,"all":0,"none":0},"suppressed":null,"mode":"productivity"},"seed_sources":{"n_answered":10,"status_counts":{},"counts":{"shop":10,"nursery":0,"neighbour":2,"association":0,"own_harvest":1,"other":0},"suppressed":null,"mode":"shop"},"seed_challenges":{"n_answered":10,"status_counts":{},"counts":{"high_cost":7,"low_availability":4,"unreliable_suppliers":3,"unsuitable":1,"none":1},"suppressed":null,"mode":"high_cost"},"traditional_seed_knowledge":{"n_answered":10,"status_counts":{},"counts":{"yes":4,"no":6},"suppressed":null,"mode":"no"},"soil_enhancers":{"n_answered":10,"status_counts":{},"counts":{"chemical":3,"compost":2,"biofertilizer":2,"manure":7,"none":0},"suppressed":null,"mode":"manure"},"chem_fertilizer_reliance":{"n_answered":9,"status_counts":{"not_provided":1},"counts":{"not_used":1,"partial":8,"total":0},"suppressed":null,"mode":"partial"},"pest_control":{"n_answered":10,"status_counts":{},"counts":{"chemical":7,"biological":2,"physical":1,"local":2},"suppressed":null,"mode":"chemical"},"pesticide_reliance":{"n_answered":10,"status_counts":{},"counts":{"not_used":2,"partial":6,"total":2},"suppressed":null,"mode":"partial"},"marketing_challenges":{"n_answered":10,"status_counts":{},"counts":{"low_prices":5,"weak_demand":4,"far_markets":3,"no_transport":0,"poor_packaging":3,"other":0},"suppressed":null,"mode":"low_prices"},"logistics_challenges":{"n_answered":10,"status_counts":{},"counts":{"high_transport_cost":5,"no_paved_roads":5,"no_transport":1,"other":0},"suppressed":null,"mode":"high_transport_cost"},"climate_change_noticed":{"n_answered":10,"status_counts":{},"counts":{"yes":10,"no":0},"suppressed":null,"mode":"yes"},"climate_changes":{"n_answered":10,"status_counts":{},"counts":{"temperature_rise":7,"rainfall_decrease":9,"heatwaves":2,"frost":2,"less_snow":0,"other":0},"suppressed":null,"mode":"rainfall_decrease"},"climate_impacts":{"n_answered":10,"status_counts":{},"counts":{"production_decrease":10,"season_delay":5,"pests_diseases":4,"pollination":3,"no_major_impact":0,"other":0},"suppressed":null,"mode":"production_decrease"},"info_sources":{"n_answered":10,"status_counts":{},"counts":{"social_media":9,"extension_agents":4,"supply_shops":4,"television":0,"other":0},"suppressed":null,"mode":"social_media"},"raises_poultry":{"n_answered":10,"status_counts":{},"counts":{"yes":6,"no":4},"suppressed":null,"mode":"yes"},"poultry_purpose":{"n_answered":6,"status_counts":{"not_applicable":4},"counts":{"home_consumption":6,"local_sale":2,"gifts":0},"suppressed":null,"mode":"home_consumption"},"farmer_type":{"n_answered":10,"status_counts":{},"counts":{"type_a":0,"type_b":0,"type_c":2,"type_d":8},"suppressed":null,"mode":"type_d"},"low_input_practices":{"n_answered":10,"status_counts":{},"counts":{"yes":8,"no":2},"suppressed":null,"mode":"yes"}}}},{"type":"Feature","id":"village:23651","geometry":{"type":"Polygon","coordinates":[[[35.57806,33.6523],[35.57597,33.65223],[35.57259,33.65322],[35.57055,33.65287],[35.56582,33.64994],[35.56567,33.64944],[35.56676,33.64949],[35.56682,33.64868],[35.56496,33.64746],[35.5653,33.64704],[35.56435,33.64679],[35.56473,33.64642],[35.56451,33.64593],[35.56568,33.64594],[35.56537,33.64469],[35.56756,33.64402],[35.57002,33.64177],[35.57068,33.64177],[35.56868,33.64096],[35.56919,33.63993],[35.56847,33.63914],[35.56932,33.63785],[35.57023,33.63785],[35.57067,33.6371],[35.56933,33.63673],[35.56939,33.63612],[35.56885,33.63607],[35.57073,33.63526],[35.57017,33.63425],[35.57086,33.63387],[35.57143,33.63235],[35.57181,33.63259],[35.57252,33.63188],[35.56909,33.62886],[35.56717,33.62887],[35.56687,33.62788],[35.5652,33.62837],[35.56487,33.62709],[35.56332,33.62574],[35.56057,33.62465],[35.56003,33.62359],[35.56056,33.62289],[35.5623,33.62217],[35.562,33.6201],[35.56244,33.61954],[35.55952,33.61735],[35.56058,33.61672],[35.55995,33.61592],[35.55878,33.6158],[35.56147,33.61303],[35.56395,33.61255],[35.56803,33.61293],[35.56956,33.61439],[35.57253,33.61422],[35.574,33.61463],[35.57459,33.61585],[35.57645,33.6159],[35.57638,33.61629],[35.57791,33.61771],[35.57896,33.61803],[35.57922,33.61964],[35.57833,33.62042],[35.57907,33.62143],[35.58068,33.62267],[35.58229,33.6223],[35.58354,33.62263],[35.58614,33.62189],[35.58884,33.61626],[35.59038,33.61536],[35.59072,33.61453],[35.5913,33.61472],[35.5919,33.61336],[35.59314,33.61459],[35.59429,33.61501],[35.59092,33.60861],[35.58631,33.60583],[35.58198,33.60635],[35.57812,33.60595],[35.57251,33.60655],[35.57279,33.60574],[35.57357,33.60536],[35.57574,33.60539],[35.57568,33.60495],[35.57617,33.60479],[35.57564,33.6034],[35.57595,33.60191],[35.57764,33.60045],[35.56707,33.60147],[35.56546,33.60197],[35.56533,33.60167],[35.56282,33.60488],[35.56156,33.60468],[35.56089,33.60378],[35.55848,33.6029],[35.55767,33.60165],[35.5565,33.60114],[35.55778,33.59979],[35.55698,33.59854],[35.55744,33.59791],[35.55643,33.59635],[35.55579,33.59662],[35.55643,33.59843],[35.55618,33.59808],[35.55463,33.59847],[35.55242,33.59663],[35.55074,33.59272],[35.5486,33.59166],[35.54937,33.58966],[35.55353,33.58971],[35.55483,33.59118],[35.55512,33.59482],[35.55804,33.59408],[35.5596,33.59512],[35.56149,33.59736],[35.56316,33.59622],[35.56541,33.59784],[35.56734,33.59787],[35.5689,33.5987],[35.57154,33.59862],[35.57364,33.59835],[35.57449,33.59679],[35.57528,33.59647],[35.58344,33.59794],[35.58465,33.59871],[35.58634,33.59801],[35.59036,33.60174],[35.59224,33.60131],[35.59449,33.60212],[35.59378,33.60507],[35.59614,33.60798],[35.59634,33.61021],[35.59783,33.61371],[35.59813,33.61728],[35.6001,33.62042],[35.59861,33.62662],[35.59922,33.62744],[35.6003,33.63332],[35.60136,33.63487],[35.6003,33.63588],[35.59853,33.63579],[35.5921,33.63709],[35.59311,33.64109],[35.59264,33.64246],[35.58965,33.64287],[35.5888,33.64372],[35.58903,33.64442],[35.58802,33.64594],[35.58545,33.647],[35.58358,33.6483],[35.58377,33.64855],[35.58009,33.64807],[35.57966,33.64835],[35.58109,33.64981],[35.58086,33.65104],[35.5776,33.65162],[35.57806,33.6523]]]},"properties":{"entity_type":"village_survey_summary","name_en":"Mazraat Ech-Chouf","name_ar":"مزرعة","district_en":"Chouf","district_ar":"الشوف","adm3_pcode":"23651","adm2_pcode":"LB33","n_respondents":12,"instruments":["chouf_2026"],"geom_origin":"cadastral_unit_polygon","spatial_precision":"cadastral_unit","context":{"fire_detections_5km":8,"protected_area_km":1.1},"mode__owns_land":"yes","mode__land_size_band":"lt_5_dunum","mode__soil_types":"calcareous","mode__crop_groups":"vegetables","mode__water_sources":"storage","mode__water_availability":"never","mode__water_scarcity":"yes","mode__irrigation_need_change":"increase","mode__energy_sources":"manual","mode__production_level":"medium","mode__coop_member":"no","mode__homes_trad_food":"some","mode__seed_criteria":"productivity","mode__seed_sources":"shop","mode__seed_challenges":"high_cost","mode__traditional_seed_knowledge":"no","mode__soil_enhancers":"manure","mode__chem_fertilizer_reliance":"not_used","mode__pest_control":"chemical","mode__pesticide_reliance":"partial","mode__marketing_challenges":"low_prices","mode__logistics_challenges":"high_transport_cost","mode__climate_change_noticed":"yes","mode__climate_changes":"rainfall_decrease","mode__climate_impacts":"production_decrease","mode__info_sources":"social_media","mode__raises_poultry":"yes","mode__poultry_purpose":"home_consumption","mode__farmer_type":"type_c","mode__low_input_practices":"yes","indicators":{"owns_land":{"n_answered":12,"status_counts":{},"counts":{"yes":10,"no":2},"suppressed":null,"mode":"yes"},"land_size_band":{"n_answered":12,"status_counts":{},"counts":{"lt_5_dunum":8,"lt_1_ha":2,"gt_1_ha":1,"gt_2_ha":1},"suppressed":null,"mode":"lt_5_dunum"},"soil_types":{"n_answered":12,"status_counts":{},"counts":{"loamy":4,"clay":4,"sandy":1,"calcareous":5,"acidic":0},"suppressed":null,"mode":"calcareous"},"crop_groups":{"n_answered":12,"status_counts":{},"counts":{"olives":3,"apples_pears":0,"stone_fruits":0,"citrus":0,"tropical_fruits":0,"grapes":0,"other_fruits":1,"nuts_pine":0,"vegetables":10,"legumes":7,"cereals_fodder":1,"herbs":0,"nursery":0,"other":0},"suppressed":null,"mode":"vegetables"},"water_sources":{"n_answered":12,"status_counts":{},"counts":{"rain":2,"river":0,"well":2,"tanker":7,"canal":0,"spring":2,"public_network":0,"storage":8,"other":0},"suppressed":null,"mode":"storage"},"water_availability":{"n_answered":12,"status_counts":{},"counts":{"always":1,"sometimes":3,"rarely":2,"never":6},"suppressed":null,"mode":"never"},"water_scarcity":{"n_answered":12,"status_counts":{},"counts":{"yes":12,"no":0},"suppressed":null,"mode":"yes"},"irrigation_need_change":{"n_answered":12,"status_counts":{},"counts":{"increase":9,"decrease":1,"no_change":1,"unsure":1},"suppressed":null,"mode":"increase"},"energy_sources":{"n_answered":12,"status_counts":{},"counts":{"manual":7,"grid":1,"diesel":2,"solar":2,"gasoline":1,"gravity":1,"none":0,"other":0},"suppressed":null,"mode":"manual"},"production_level":{"n_answered":12,"status_counts":{},"counts":{"small":3,"medium":8,"large":1},"suppressed":null,"mode":"medium"},"coop_member":{"n_answered":12,"status_counts":{},"counts":{"yes":0,"no":12},"suppressed":null,"mode":"no"},"homes_trad_food":{"n_answered":12,"status_counts":{},"counts":{"few":3,"some":6,"most":1,"almost_all":2},"suppressed":null,"mode":"some"},"seed_criteria":{"n_answered":12,"status_counts":{},"counts":{"price":5,"productivity":6,"pest_resistance":5,"all":0,"none":3},"suppressed":null,"mode":"productivity"},"seed_sources":{"n_answered":12,"status_counts":{},"counts":{"shop":10,"nursery":0,"neighbour":0,"association":2,"own_harvest":3,"other":0},"suppressed":null,"mode":"shop"},"seed_challenges":{"n_answered":12,"status_counts":{},"counts":{"high_cost":7,"low_availability":6,"unreliable_suppliers":4,"unsuitable":1,"none":1},"suppressed":null,"mode":"high_cost"},"traditional_seed_knowledge":{"n_answered":12,"status_counts":{},"counts":{"yes":3,"no":9},"suppressed":null,"mode":"no"},"soil_enhancers":{"n_answered":12,"status_counts":{},"counts":{"chemical":2,"compost":4,"biofertilizer":1,"manure":10,"none":0},"suppressed":null,"mode":"manure"},"chem_fertilizer_reliance":{"n_answered":12,"status_counts":{},"counts":{"not_used":7,"partial":4,"total":1},"suppressed":null,"mode":"not_used"},"pest_control":{"n_answered":12,"status_counts":{},"counts":{"chemical":8,"biological":2,"physical":2,"local":2},"suppressed":null,"mode":"chemical"},"pesticide_reliance":{"n_answered":12,"status_counts":{},"counts":{"not_used":4,"partial":6,"total":2},"suppressed":null,"mode":"partial"},"marketing_challenges":{"n_answered":9,"status_counts":{"not_provided":3},"counts":{"low_prices":7,"weak_demand":2,"far_markets":2,"no_transport":2,"poor_packaging":1,"other":0},"suppressed":null,"mode":"low_prices"},"logistics_challenges":{"n_answered":9,"status_counts":{"not_provided":3},"counts":{"high_transport_cost":6,"no_paved_roads":3,"no_transport":2,"other":0},"suppressed":null,"mode":"high_transport_cost"},"climate_change_noticed":{"n_answered":12,"status_counts":{},"counts":{"yes":9,"no":3},"suppressed":null,"mode":"yes"},"climate_changes":{"n_answered":11,"status_counts":{"not_applicable":1},"counts":{"temperature_rise":7,"rainfall_decrease":10,"heatwaves":4,"frost":3,"less_snow":0,"other":0},"suppressed":null,"mode":"rainfall_decrease"},"climate_impacts":{"n_answered":11,"status_counts":{"not_applicable":1},"counts":{"production_decrease":8,"season_delay":5,"pests_diseases":8,"pollination":2,"no_major_impact":0,"other":0},"suppressed":null,"mode":"production_decrease"},"info_sources":{"n_answered":11,"status_counts":{"not_provided":1},"counts":{"social_media":8,"extension_agents":6,"supply_shops":7,"television":1,"other":0},"suppressed":null,"mode":"social_media"},"raises_poultry":{"n_answered":12,"status_counts":{},"counts":{"yes":6,"no":6},"suppressed":null,"mode":"yes"},"poultry_purpose":{"n_answered":6,"status_counts":{"not_applicable":6},"counts":{"home_consumption":5,"local_sale":2,"gifts":0},"suppressed":null,"mode":"home_consumption"},"farmer_type":{"n_answered":12,"status_counts":{},"counts":{"type_a":1,"type_b":0,"type_c":7,"type_d":4},"suppressed":null,"mode":"type_c"},"low_input_practices":{"n_answered":12,"status_counts":{},"counts":{"yes":11,"no":1},"suppressed":null,"mode":"yes"}}}},{"type":"Feature","id":"village:23655","geometry":{"type":"Polygon","coordinates":[[[35.61524,33.71134],[35.61377,33.71124],[35.61276,33.71055],[35.61156,33.71067],[35.61156,33.71013],[35.60971,33.70821],[35.61063,33.70681],[35.60976,33.70605],[35.61036,33.70057],[35.60979,33.69917],[35.61062,33.6981],[35.61236,33.69809],[35.61224,33.69757],[35.61411,33.69509],[35.61358,33.6928],[35.61378,33.69181],[35.61177,33.69181],[35.61085,33.69294],[35.61134,33.69417],[35.6108,33.69364],[35.61028,33.69386],[35.60907,33.69335],[35.60831,33.69235],[35.60855,33.69172],[35.60739,33.69112],[35.60346,33.69083],[35.60347,33.68971],[35.6066,33.68721],[35.61049,33.68804],[35.61277,33.68709],[35.61554,33.68729],[35.62315,33.6903],[35.624,33.68958],[35.62328,33.68777],[35.62448,33.687],[35.62467,33.6861],[35.62427,33.68571],[35.62491,33.68519],[35.62885,33.68511],[35.62905,33.68357],[35.63,33.68286],[35.63251,33.68341],[35.63483,33.68276],[35.63715,33.68309],[35.6378,33.6839],[35.63678,33.68431],[35.63633,33.6851],[35.63524,33.68517],[35.63525,33.68601],[35.63422,33.68622],[35.63451,33.68747],[35.63318,33.68928],[35.63524,33.69096],[35.63524,33.69198],[35.63769,33.69341],[35.64039,33.69338],[35.6405,33.69431],[35.64606,33.69479],[35.64661,33.69557],[35.6476,33.69554],[35.64931,33.69767],[35.65139,33.69868],[35.65201,33.70178],[35.6565,33.70389],[35.65774,33.70405],[35.65705,33.70603],[35.65576,33.70622],[35.65516,33.70739],[35.6534,33.70744],[35.65311,33.70793],[35.65193,33.70714],[35.64997,33.70999],[35.64755,33.71131],[35.64626,33.71264],[35.64292,33.71173],[35.64134,33.71195],[35.6413,33.7108],[35.64043,33.71089],[35.63922,33.70999],[35.63712,33.71038],[35.63406,33.70964],[35.63233,33.70978],[35.63191,33.71045],[35.63098,33.71051],[35.63003,33.7113],[35.6297,33.71271],[35.62905,33.71286],[35.62726,33.71216],[35.62235,33.71256],[35.62077,33.71204],[35.62004,33.71112],[35.61813,33.71056],[35.61621,33.71074],[35.61524,33.71134]]]},"properties":{"entity_type":"village_survey_summary","name_en":"Kfar Nabrakh","name_ar":"كفرنبرخ","district_en":"Chouf","district_ar":"الشوف","adm3_pcode":"23655","adm2_pcode":"LB33","n_respondents":5,"instruments":["chouf_2026"],"geom_origin":"cadastral_unit_polygon","spatial_precision":"cadastral_unit","context":{"fire_detections_5km":21,"protected_area_km":0.7},"mode__owns_land":"yes","mode__land_size_band":"lt_5_dunum","mode__soil_types":"loamy","mode__crop_groups":"vegetables","mode__water_sources":"canal","mode__water_availability":"rarely","mode__water_scarcity":"yes","mode__irrigation_need_change":"increase","mode__energy_sources":"manual","mode__production_level":"medium","mode__coop_member":"no","mode__homes_trad_food":"some","mode__seed_criteria":"productivity","mode__seed_sources":"shop","mode__seed_challenges":"high_cost","mode__traditional_seed_knowledge":"no","mode__soil_enhancers":"chemical","mode__chem_fertilizer_reliance":"partial","mode__pest_control":"chemical","mode__marketing_challenges":"low_prices","mode__logistics_challenges":"high_transport_cost","mode__climate_change_noticed":"yes","mode__climate_changes":"rainfall_decrease","mode__climate_impacts":"production_decrease","mode__info_sources":"social_media","mode__raises_poultry":"no","mode__farmer_type":"type_a","mode__low_input_practices":"yes","indicators":{"owns_land":{"n_answered":5,"status_counts":{},"counts":{"yes":5,"no":0},"suppressed":null,"mode":"yes"},"land_size_band":{"n_answered":5,"status_counts":{},"counts":{"lt_5_dunum":3,"lt_1_ha":0,"gt_1_ha":1,"gt_2_ha":1},"suppressed":null,"mode":"lt_5_dunum"},"soil_types":{"n_answered":5,"status_counts":{},"counts":{"loamy":3,"clay":1,"sandy":1,"calcareous":1,"acidic":0},"suppressed":null,"mode":"loamy"},"crop_groups":{"n_answered":5,"status_counts":{},"counts":{"olives":0,"apples_pears":1,"stone_fruits":0,"citrus":0,"tropical_fruits":0,"grapes":0,"other_fruits":1,"nuts_pine":0,"vegetables":3,"legumes":1,"cereals_fodder":0,"herbs":0,"nursery":0,"other":0},"suppressed":null,"mode":"vegetables"},"water_sources":{"n_answered":5,"status_counts":{},"counts":{"rain":1,"river":1,"well":0,"tanker":1,"canal":4,"spring":0,"public_network":0,"storage":1,"other":0},"suppressed":null,"mode":"canal"},"water_availability":{"n_answered":5,"status_counts":{},"counts":{"always":1,"sometimes":1,"rarely":2,"never":1},"suppressed":null,"mode":"rarely"},"water_scarcity":{"n_answered":5,"status_counts":{},"counts":{"yes":4,"no":1},"suppressed":null,"mode":"yes"},"irrigation_need_change":{"n_answered":5,"status_counts":{},"counts":{"increase":4,"decrease":1,"no_change":0,"unsure":0},"suppressed":null,"mode":"increase"},"energy_sources":{"n_answered":5,"status_counts":{},"counts":{"manual":2,"grid":0,"diesel":1,"solar":1,"gasoline":0,"gravity":0,"none":1,"other":0},"suppressed":null,"mode":"manual"},"production_level":{"n_answered":5,"status_counts":{},"counts":{"small":0,"medium":5,"large":0},"suppressed":null,"mode":"medium"},"coop_member":{"n_answered":5,"status_counts":{},"counts":{"yes":0,"no":5},"suppressed":null,"mode":"no"},"homes_trad_food":{"n_answered":5,"status_counts":{},"counts":{"few":1,"some":3,"most":1,"almost_all":0},"suppressed":null,"mode":"some"},"seed_criteria":{"n_answered":5,"status_counts":{},"counts":{"price":3,"productivity":5,"pest_resistance":2,"all":0,"none":0},"suppressed":null,"mode":"productivity"},"seed_sources":{"n_answered":5,"status_counts":{},"counts":{"shop":4,"nursery":0,"neighbour":1,"association":0,"own_harvest":2,"other":0},"suppressed":null,"mode":"shop"},"seed_challenges":{"n_answered":5,"status_counts":{},"counts":{"high_cost":2,"low_availability":1,"unreliable_suppliers":1,"unsuitable":0,"none":1},"suppressed":null,"mode":"high_cost"},"traditional_seed_knowledge":{"n_answered":5,"status_counts":{},"counts":{"yes":2,"no":3},"suppressed":null,"mode":"no"},"soil_enhancers":{"n_answered":5,"status_counts":{},"counts":{"chemical":4,"compost":1,"biofertilizer":1,"manure":2,"none":0},"suppressed":null,"mode":"chemical"},"chem_fertilizer_reliance":{"n_answered":5,"status_counts":{},"counts":{"not_used":1,"partial":3,"total":1},"suppressed":null,"mode":"partial"},"pest_control":{"n_answered":5,"status_counts":{},"counts":{"chemical":5,"biological":0,"physical":0,"local":1},"suppressed":null,"mode":"chemical"},"pesticide_reliance":{"n_answered":3,"status_counts":{"not_provided":2},"counts":null,"suppressed":"fewer_than_k_answers","mode":null},"marketing_challenges":{"n_answered":5,"status_counts":{},"counts":{"low_prices":5,"weak_demand":1,"far_markets":1,"no_transport":0,"poor_packaging":0,"other":0},"suppressed":null,"mode":"low_prices"},"logistics_challenges":{"n_answered":5,"status_counts":{},"counts":{"high_transport_cost":4,"no_paved_roads":2,"no_transport":0,"other":0},"suppressed":null,"mode":"high_transport_cost"},"climate_change_noticed":{"n_answered":5,"status_counts":{},"counts":{"yes":5,"no":0},"suppressed":null,"mode":"yes"},"climate_changes":{"n_answered":5,"status_counts":{},"counts":{"temperature_rise":3,"rainfall_decrease":5,"heatwaves":2,"frost":0,"less_snow":0,"other":0},"suppressed":null,"mode":"rainfall_decrease"},"climate_impacts":{"n_answered":5,"status_counts":{},"counts":{"production_decrease":3,"season_delay":1,"pests_diseases":3,"pollination":0,"no_major_impact":0,"other":0},"suppressed":null,"mode":"production_decrease"},"info_sources":{"n_answered":5,"status_counts":{},"counts":{"social_media":3,"extension_agents":1,"supply_shops":2,"television":0,"other":0},"suppressed":null,"mode":"social_media"},"raises_poultry":{"n_answered":5,"status_counts":{},"counts":{"yes":2,"no":3},"suppressed":null,"mode":"no"},"poultry_purpose":{"n_answered":2,"status_counts":{"not_applicable":3},"counts":null,"suppressed":"fewer_than_k_answers","mode":null},"farmer_type":{"n_answered":5,"status_counts":{},"counts":{"type_a":3,"type_b":1,"type_c":1,"type_d":0},"suppressed":null,"mode":"type_a"},"low_input_practices":{"n_answered":5,"status_counts":{},"counts":{"yes":4,"no":1},"suppressed":null,"mode":"yes"}}}},{"type":"Feature","id":"village:23659","geometry":{"type":"Polygon","coordinates":[[[35.66838,33.63212],[35.66659,33.63233],[35.66608,33.63324],[35.65906,33.63613],[35.65524,33.63565],[35.65321,33.63301],[35.65157,33.63166],[35.65026,33.63148],[35.64609,33.62704],[35.64107,33.61872],[35.64058,33.61681],[35.63949,33.616],[35.63939,33.61526],[35.63777,33.61443],[35.63938,33.61333],[35.64175,33.61258],[35.64455,33.61331],[35.64657,33.61299],[35.64917,33.61165],[35.65334,33.61129],[35.65411,33.61053],[35.6549,33.60811],[35.65728,33.60593],[35.66336,33.60475],[35.67168,33.62229],[35.6719,33.62451],[35.67321,33.62632],[35.66915,33.62928],[35.6684,33.63065],[35.66838,33.63212]]]},"properties":{"entity_type":"village_survey_summary","name_en":"Mristi","name_ar":"مرستى","district_en":"Chouf","district_ar":"الشوف","adm3_pcode":"23659","adm2_pcode":"LB33","n_respondents":17,"instruments":["chouf_2026"],"geom_origin":"cadastral_unit_polygon","spatial_precision":"cadastral_unit","context":{"fire_detections_5km":2,"protected_area_km":0.0},"mode__owns_land":"yes","mode__land_size_band":"lt_5_dunum","mode__soil_types":"clay","mode__crop_groups":"apples_pears","mode__water_sources":"canal","mode__water_availability":"sometimes","mode__water_scarcity":"yes","mode__irrigation_need_change":"increase","mode__energy_sources":"manual","mode__production_level":"medium","mode__coop_member":"no","mode__homes_trad_food":"most","mode__seed_criteria":"price","mode__seed_sources":"shop","mode__seed_challenges":"high_cost","mode__traditional_seed_knowledge":"no","mode__soil_enhancers":"manure","mode__chem_fertilizer_reliance":"partial","mode__pest_control":"chemical","mode__pesticide_reliance":"partial","mode__marketing_challenges":"low_prices","mode__logistics_challenges":"high_transport_cost","mode__climate_change_noticed":"yes","mode__climate_changes":"rainfall_decrease","mode__climate_impacts":"production_decrease","mode__info_sources":"extension_agents","mode__raises_poultry":"no","mode__poultry_purpose":"home_consumption","mode__farmer_type":"type_b","mode__low_input_practices":"yes","indicators":{"owns_land":{"n_answered":17,"status_counts":{},"counts":{"yes":17,"no":0},"suppressed":null,"mode":"yes"},"land_size_band":{"n_answered":17,"status_counts":{},"counts":{"lt_5_dunum":9,"lt_1_ha":5,"gt_1_ha":3,"gt_2_ha":0},"suppressed":null,"mode":"lt_5_dunum"},"soil_types":{"n_answered":17,"status_counts":{},"counts":{"loamy":5,"clay":11,"sandy":1,"calcareous":4,"acidic":0},"suppressed":null,"mode":"clay"},"crop_groups":{"n_answered":17,"status_counts":{},"counts":{"olives":0,"apples_pears":12,"stone_fruits":9,"citrus":0,"tropical_fruits":0,"grapes":0,"other_fruits":1,"nuts_pine":0,"vegetables":11,"legumes":1,"cereals_fodder":0,"herbs":0,"nursery":0,"other":0},"suppressed":null,"mode":"apples_pears"},"water_sources":{"n_answered":17,"status_counts":{},"counts":{"rain":5,"river":0,"well":6,"tanker":1,"canal":7,"spring":0,"public_network":0,"storage":3,"other":0},"suppressed":null,"mode":"canal"},"water_availability":{"n_answered":17,"status_counts":{},"counts":{"always":1,"sometimes":9,"rarely":3,"never":4},"suppressed":null,"mode":"sometimes"},"water_scarcity":{"n_answered":17,"status_counts":{},"counts":{"yes":14,"no":3},"suppressed":null,"mode":"yes"},"irrigation_need_change":{"n_answered":17,"status_counts":{},"counts":{"increase":12,"decrease":2,"no_change":1,"unsure":2},"suppressed":null,"mode":"increase"},"energy_sources":{"n_answered":17,"status_counts":{},"counts":{"manual":11,"grid":4,"diesel":3,"solar":0,"gasoline":2,"gravity":0,"none":0,"other":0},"suppressed":null,"mode":"manual"},"production_level":{"n_answered":17,"status_counts":{},"counts":{"small":4,"medium":12,"large":1},"suppressed":null,"mode":"medium"},"coop_member":{"n_answered":17,"status_counts":{},"counts":{"yes":5,"no":12},"suppressed":null,"mode":"no"},"homes_trad_food":{"n_answered":17,"status_counts":{},"counts":{"few":1,"some":3,"most":8,"almost_all":5},"suppressed":null,"mode":"most"},"seed_criteria":{"n_answered":17,"status_counts":{},"counts":{"price":11,"productivity":10,"pest_resistance":8,"all":0,"none":0},"suppressed":null,"mode":"price"},"seed_sources":{"n_answered":17,"status_counts":{},"counts":{"shop":13,"nursery":0,"neighbour":4,"association":4,"own_harvest":7,"other":0},"suppressed":null,"mode":"shop"},"seed_challenges":{"n_answered":17,"status_counts":{},"counts":{"high_cost":9,"low_availability":5,"unreliable_suppliers":6,"unsuitable":0,"none":4},"suppressed":null,"mode":"high_cost"},"traditional_seed_knowledge":{"n_answered":17,"status_counts":{},"counts":{"yes":5,"no":12},"suppressed":null,"mode":"no"},"soil_enhancers":{"n_answered":16,"status_counts":{"not_provided":1},"counts":{"chemical":5,"compost":9,"biofertilizer":2,"manure":10,"none":0},"suppressed":null,"mode":"manure"},"chem_fertilizer_reliance":{"n_answered":17,"status_counts":{},"counts":{"not_used":7,"partial":9,"total":1},"suppressed":null,"mode":"partial"},"pest_control":{"n_answered":17,"status_counts":{},"counts":{"chemical":13,"biological":4,"physical":2,"local":5},"suppressed":null,"mode":"chemical"},"pesticide_reliance":{"n_answered":17,"status_counts":{},"counts":{"not_used":3,"partial":9,"total":5},"suppressed":null,"mode":"partial"},"marketing_challenges":{"n_answered":17,"status_counts":{},"counts":{"low_prices":14,"weak_demand":6,"far_markets":5,"no_transport":3,"poor_packaging":3,"other":0},"suppressed":null,"mode":"low_prices"},"logistics_challenges":{"n_answered":17,"status_counts":{},"counts":{"high_transport_cost":15,"no_paved_roads":2,"no_transport":4,"other":0},"suppressed":null,"mode":"high_transport_cost"},"climate_change_noticed":{"n_answered":17,"status_counts":{},"counts":{"yes":17,"no":0},"suppressed":null,"mode":"yes"},"climate_changes":{"n_answered":17,"status_counts":{},"counts":{"temperature_rise":10,"rainfall_decrease":15,"heatwaves":7,"frost":5,"less_snow":0,"other":0},"suppressed":null,"mode":"rainfall_decrease"},"climate_impacts":{"n_answered":17,"status_counts":{},"counts":{"production_decrease":15,"season_delay":5,"pests_diseases":8,"pollination":3,"no_major_impact":0,"other":0},"suppressed":null,"mode":"production_decrease"},"info_sources":{"n_answered":17,"status_counts":{},"counts":{"social_media":7,"extension_agents":12,"supply_shops":6,"television":0,"other":0},"suppressed":null,"mode":"extension_agents"},"raises_poultry":{"n_answered":17,"status_counts":{},"counts":{"yes":7,"no":10},"suppressed":null,"mode":"no"},"poultry_purpose":{"n_answered":7,"status_counts":{"not_applicable":10},"counts":{"home_consumption":6,"local_sale":2,"gifts":1},"suppressed":null,"mode":"home_consumption"},"farmer_type":{"n_answered":17,"status_counts":{},"counts":{"type_a":1,"type_b":7,"type_c":7,"type_d":2},"suppressed":null,"mode":"type_b"},"low_input_practices":{"n_answered":17,"status_counts":{},"counts":{"yes":17,"no":0},"suppressed":null,"mode":"yes"}}}},{"type":"Feature","id":"village:23663","geometry":{"type":"Polygon","coordinates":[[[35.66556,33.70897],[35.66223,33.70677],[35.66001,33.70446],[35.6565,33.70389],[35.65201,33.70178],[35.65139,33.69868],[35.64931,33.69767],[35.6476,33.69554],[35.64661,33.69557],[35.64606,33.69479],[35.6405,33.69431],[35.64039,33.69338],[35.63749,33.69333],[35.63524,33.69198],[35.63524,33.69096],[35.6334,33.68966],[35.63318,33.68928],[35.63451,33.68747],[35.63422,33.68622],[35.63525,33.68601],[35.63524,33.68517],[35.63633,33.6851],[35.63678,33.68431],[35.6378,33.6839],[35.63715,33.68309],[35.636,33.68292],[35.63632,33.6826],[35.63832,33.68262],[35.63825,33.68214],[35.63881,33.68188],[35.64072,33.68161],[35.64095,33.68111],[35.64231,33.68112],[35.64207,33.67871],[35.64127,33.67804],[35.64161,33.67762],[35.64272,33.67819],[35.64418,33.68006],[35.64519,33.67883],[35.64856,33.68271],[35.64917,33.68295],[35.64931,33.68237],[35.64995,33.6822],[35.65197,33.68411],[35.65315,33.68373],[35.65484,33.68589],[35.65725,33.68617],[35.65897,33.68557],[35.66055,33.68564],[35.66448,33.68657],[35.66855,33.68879],[35.6698,33.68841],[35.67139,33.68937],[35.67,33.69206],[35.6689,33.69226],[35.66782,33.69326],[35.66898,33.69623],[35.66942,33.69976],[35.66849,33.70074],[35.66633,33.70131],[35.66619,33.70236],[35.66567,33.70255],[35.66611,33.70386],[35.66556,33.70897]]]},"properties":{"entity_type":"village_survey_summary","name_en":"Batloun","name_ar":"بتلون","district_en":"Chouf","district_ar":"الشوف","adm3_pcode":"23663","adm2_pcode":"LB33","n_respondents":11,"instruments":["chouf_2026"],"geom_origin":"cadastral_unit_polygon","spatial_precision":"cadastral_unit","context":{"fire_detections_5km":19,"protected_area_km":0.0},"mode__owns_land":"yes","mode__land_size_band":"lt_5_dunum","mode__soil_types":"loamy","mode__crop_groups":"apples_pears","mode__water_sources":"river","mode__water_availability":"rarely","mode__water_scarcity":"yes","mode__irrigation_need_change":"increase","mode__energy_sources":"manual","mode__production_level":"small","mode__coop_member":"no","mode__homes_trad_food":"most","mode__seed_criteria":"productivity","mode__seed_sources":"shop","mode__seed_challenges":"high_cost","mode__traditional_seed_knowledge":"yes","mode__soil_enhancers":"manure","mode__chem_fertilizer_reliance":"partial","mode__pest_control":"chemical","mode__pesticide_reliance":"partial","mode__marketing_challenges":"low_prices","mode__logistics_challenges":"high_transport_cost","mode__climate_change_noticed":"yes","mode__climate_changes":"rainfall_decrease","mode__climate_impacts":"production_decrease","mode__info_sources":"social_media","mode__raises_poultry":"no","mode__farmer_type":"type_b","mode__low_input_practices":"yes","indicators":{"owns_land":{"n_answered":11,"status_counts":{},"counts":{"yes":11,"no":0},"suppressed":null,"mode":"yes"},"land_size_band":{"n_answered":11,"status_counts":{},"counts":{"lt_5_dunum":8,"lt_1_ha":3,"gt_1_ha":0,"gt_2_ha":0},"suppressed":null,"mode":"lt_5_dunum"},"soil_types":{"n_answered":11,"status_counts":{},"counts":{"loamy":5,"clay":5,"sandy":1,"calcareous":0,"acidic":0},"suppressed":null,"mode":"loamy"},"crop_groups":{"n_answered":8,"status_counts":{"invalid":2,"not_provided":1},"counts":{"olives":1,"apples_pears":6,"stone_fruits":2,"citrus":0,"tropical_fruits":0,"grapes":0,"other_fruits":1,"nuts_pine":1,"vegetables":3,"legumes":1,"cereals_fodder":0,"herbs":0,"nursery":0,"other":0},"suppressed":null,"mode":"apples_pears"},"water_sources":{"n_answered":10,"status_counts":{"not_provided":1},"counts":{"rain":0,"river":6,"well":1,"tanker":2,"canal":2,"spring":0,"public_network":1,"storage":2,"other":0},"suppressed":null,"mode":"river"},"water_availability":{"n_answered":11,"status_counts":{},"counts":{"always":1,"sometimes":2,"rarely":7,"never":1},"suppressed":null,"mode":"rarely"},"water_scarcity":{"n_answered":11,"status_counts":{},"counts":{"yes":10,"no":1},"suppressed":null,"mode":"yes"},"irrigation_need_change":{"n_answered":11,"status_counts":{},"counts":{"increase":6,"decrease":5,"no_change":0,"unsure":0},"suppressed":null,"mode":"increase"},"energy_sources":{"n_answered":10,"status_counts":{"not_provided":1},"counts":{"manual":3,"grid":3,"diesel":2,"solar":0,"gasoline":0,"gravity":0,"none":3,"other":0},"suppressed":null,"mode":"manual"},"production_level":{"n_answered":11,"status_counts":{},"counts":{"small":8,"medium":2,"large":1},"suppressed":null,"mode":"small"},"coop_member":{"n_answered":11,"status_counts":{},"counts":{"yes":4,"no":7},"suppressed":null,"mode":"no"},"homes_trad_food":{"n_answered":11,"status_counts":{},"counts":{"few":1,"some":2,"most":7,"almost_all":1},"suppressed":null,"mode":"most"},"seed_criteria":{"n_answered":11,"status_counts":{},"counts":{"price":5,"productivity":8,"pest_resistance":3,"all":0,"none":0},"suppressed":null,"mode":"productivity"},"seed_sources":{"n_answered":11,"status_counts":{},"counts":{"shop":8,"nursery":1,"neighbour":3,"association":1,"own_harvest":5,"other":0},"suppressed":null,"mode":"shop"},"seed_challenges":{"n_answered":11,"status_counts":{},"counts":{"high_cost":7,"low_availability":3,"unreliable_suppliers":1,"unsuitable":3,"none":2},"suppressed":null,"mode":"high_cost"},"traditional_seed_knowledge":{"n_answered":11,"status_counts":{},"counts":{"yes":7,"no":4},"suppressed":null,"mode":"yes"},"soil_enhancers":{"n_answered":10,"status_counts":{"not_provided":1},"counts":{"chemical":3,"compost":5,"biofertilizer":0,"manure":8,"none":1},"suppressed":null,"mode":"manure"},"chem_fertilizer_reliance":{"n_answered":9,"status_counts":{"not_provided":2},"counts":{"not_used":3,"partial":6,"total":0},"suppressed":null,"mode":"partial"},"pest_control":{"n_answered":11,"status_counts":{},"counts":{"chemical":6,"biological":3,"physical":2,"local":3},"suppressed":null,"mode":"chemical"},"pesticide_reliance":{"n_answered":8,"status_counts":{"not_provided":3},"counts":{"not_used":2,"partial":4,"total":2},"suppressed":null,"mode":"partial"},"marketing_challenges":{"n_answered":6,"status_counts":{"not_provided":5},"counts":{"low_prices":4,"weak_demand":4,"far_markets":3,"no_transport":0,"poor_packaging":0,"other":0},"suppressed":null,"mode":"low_prices"},"logistics_challenges":{"n_answered":6,"status_counts":{"not_provided":5},"counts":{"high_transport_cost":4,"no_paved_roads":1,"no_transport":3,"other":0},"suppressed":null,"mode":"high_transport_cost"},"climate_change_noticed":{"n_answered":11,"status_counts":{},"counts":{"yes":11,"no":0},"suppressed":null,"mode":"yes"},"climate_changes":{"n_answered":11,"status_counts":{},"counts":{"temperature_rise":9,"rainfall_decrease":11,"heatwaves":8,"frost":2,"less_snow":0,"other":0},"suppressed":null,"mode":"rainfall_decrease"},"climate_impacts":{"n_answered":11,"status_counts":{},"counts":{"production_decrease":11,"season_delay":6,"pests_diseases":8,"pollination":2,"no_major_impact":0,"other":0},"suppressed":null,"mode":"production_decrease"},"info_sources":{"n_answered":11,"status_counts":{},"counts":{"social_media":9,"extension_agents":8,"supply_shops":2,"television":0,"other":0},"suppressed":null,"mode":"social_media"},"raises_poultry":{"n_answered":11,"status_counts":{},"counts":{"yes":3,"no":8},"suppressed":null,"mode":"no"},"poultry_purpose":{"n_answered":3,"status_counts":{"not_applicable":8},"counts":null,"suppressed":"fewer_than_k_answers","mode":null},"farmer_type":{"n_answered":11,"status_counts":{},"counts":{"type_a":0,"type_b":5,"type_c":5,"type_d":1},"suppressed":null,"mode":"type_b"},"low_input_practices":{"n_answered":11,"status_counts":{},"counts":{"yes":10,"no":1},"suppressed":null,"mode":"yes"}}}},{"type":"Feature","id":"village:23679","geometry":{"type":"Polygon","coordinates":[[[35.66956,33.7129],[35.66556,33.70897],[35.66611,33.70386],[35.66567,33.70255],[35.66619,33.70236],[35.66633,33.70131],[35.66849,33.70074],[35.66942,33.69976],[35.66898,33.69623],[35.66782,33.69326],[35.6689,33.69226],[35.67,33.69206],[35.67139,33.68937],[35.6698,33.68841],[35.66855,33.68879],[35.66748,33.68803],[35.66797,33.6866],[35.66952,33.685],[35.67112,33.6864],[35.67438,33.68624],[35.67608,33.687],[35.67905,33.68718],[35.68081,33.68496],[35.68203,33.68464],[35.68294,33.68363],[35.68296,33.68199],[35.68257,33.6815],[35.68332,33.6799],[35.68595,33.67811],[35.68725,33.67785],[35.69472,33.6784],[35.69918,33.67652],[35.70676,33.67927],[35.70751,33.6806],[35.71064,33.68191],[35.71305,33.68439],[35.71553,33.68324],[35.71817,33.68555],[35.71894,33.68723],[35.7246,33.69213],[35.72884,33.69093],[35.7324,33.68896],[35.735,33.6931],[35.73588,33.69582],[35.73845,33.69699],[35.74272,33.70073],[35.746,33.70552],[35.74975,33.6982],[35.75049,33.69781],[35.75137,33.69808],[35.75377,33.69649],[35.75767,33.70299],[35.75959,33.70854],[35.75957,33.70893],[35.75704,33.70803],[35.75652,33.70833],[35.75411,33.70779],[35.75238,33.70823],[35.75141,33.70918],[35.7503,33.70907],[35.74884,33.70976],[35.74788,33.70932],[35.74691,33.70776],[35.74212,33.71178],[35.74034,33.70515],[35.73666,33.70597],[35.73418,33.70557],[35.73141,33.70682],[35.72931,33.70594],[35.72848,33.70622],[35.7224,33.70528],[35.7184,33.70367],[35.71783,33.70186],[35.7169,33.70158],[35.71458,33.70335],[35.71068,33.70488],[35.70896,33.70733],[35.70659,33.70906],[35.70361,33.70857],[35.7008,33.70872],[35.69982,33.70826],[35.69374,33.71057],[35.69318,33.71144],[35.69147,33.71192],[35.68977,33.71145],[35.68755,33.7118],[35.68555,33.71027],[35.68414,33.70979],[35.68338,33.7101],[35.68227,33.70928],[35.67814,33.70991],[35.67676,33.70901],[35.67223,33.71065],[35.67158,33.7116],[35.66956,33.7129]]]},"properties":{"entity_type":"village_survey_summary","name_en":"Barouk","name_ar":"الباروك","district_en":"Chouf","district_ar":"الشوف","adm3_pcode":"23679","adm2_pcode":"LB33","n_respondents":9,"instruments":["chouf_2026"],"geom_origin":"cadastral_unit_polygon","spatial_precision":"cadastral_unit","context":{"fire_detections_5km":2,"protected_area_km":0.0},"mode__owns_land":"yes","mode__land_size_band":"lt_1_ha","mode__soil_types":"loamy","mode__crop_groups":"vegetables","mode__water_sources":"river","mode__water_availability":"rarely","mode__water_scarcity":"yes","mode__irrigation_need_change":"increase","mode__energy_sources":"manual","mode__production_level":"medium","mode__coop_member":"no","mode__homes_trad_food":"few","mode__seed_criteria":"productivity","mode__seed_sources":"own_harvest","mode__seed_challenges":"high_cost","mode__traditional_seed_knowledge":"yes","mode__soil_enhancers":"manure","mode__chem_fertilizer_reliance":"partial","mode__pest_control":"chemical","mode__pesticide_reliance":"partial","mode__marketing_challenges":"low_prices","mode__logistics_challenges":"high_transport_cost","mode__climate_change_noticed":"yes","mode__climate_changes":"rainfall_decrease","mode__climate_impacts":"production_decrease","mode__info_sources":"social_media","mode__raises_poultry":"yes","mode__poultry_purpose":"home_consumption","mode__farmer_type":"type_c","mode__low_input_practices":"yes","indicators":{"owns_land":{"n_answered":9,"status_counts":{},"counts":{"yes":9,"no":0},"suppressed":null,"mode":"yes"},"land_size_band":{"n_answered":9,"status_counts":{},"counts":{"lt_5_dunum":3,"lt_1_ha":4,"gt_1_ha":2,"gt_2_ha":0},"suppressed":null,"mode":"lt_1_ha"},"soil_types":{"n_answered":9,"status_counts":{},"counts":{"loamy":6,"clay":2,"sandy":2,"calcareous":1,"acidic":0},"suppressed":null,"mode":"loamy"},"crop_groups":{"n_answered":9,"status_counts":{},"counts":{"olives":0,"apples_pears":5,"stone_fruits":1,"citrus":0,"tropical_fruits":0,"grapes":0,"other_fruits":1,"nuts_pine":0,"vegetables":8,"legumes":0,"cereals_fodder":0,"herbs":0,"nursery":0,"other":0},"suppressed":null,"mode":"vegetables"},"water_sources":{"n_answered":9,"status_counts":{},"counts":{"rain":0,"river":5,"well":2,"tanker":1,"canal":3,"spring":0,"public_network":0,"storage":1,"other":0},"suppressed":null,"mode":"river"},"water_availability":{"n_answered":9,"status_counts":{},"counts":{"always":3,"sometimes":2,"rarely":4,"never":0},"suppressed":null,"mode":"rarely"},"water_scarcity":{"n_answered":9,"status_counts":{},"counts":{"yes":7,"no":2},"suppressed":null,"mode":"yes"},"irrigation_need_change":{"n_answered":9,"status_counts":{},"counts":{"increase":7,"decrease":1,"no_change":1,"unsure":0},"suppressed":null,"mode":"increase"},"energy_sources":{"n_answered":9,"status_counts":{},"counts":{"manual":5,"grid":2,"diesel":4,"solar":1,"gasoline":0,"gravity":0,"none":0,"other":0},"suppressed":null,"mode":"manual"},"production_level":{"n_answered":9,"status_counts":{},"counts":{"small":2,"medium":5,"large":2},"suppressed":null,"mode":"medium"},"coop_member":{"n_answered":9,"status_counts":{},"counts":{"yes":1,"no":8},"suppressed":null,"mode":"no"},"homes_trad_food":{"n_answered":9,"status_counts":{},"counts":{"few":3,"some":2,"most":3,"almost_all":1},"suppressed":null,"mode":"few"},"seed_criteria":{"n_answered":9,"status_counts":{},"counts":{"price":4,"productivity":6,"pest_resistance":4,"all":0,"none":0},"suppressed":null,"mode":"productivity"},"seed_sources":{"n_answered":9,"status_counts":{},"counts":{"shop":4,"nursery":0,"neighbour":2,"association":1,"own_harvest":6,"other":0},"suppressed":null,"mode":"own_harvest"},"seed_challenges":{"n_answered":9,"status_counts":{},"counts":{"high_cost":5,"low_availability":2,"unreliable_suppliers":3,"unsuitable":1,"none":4},"suppressed":null,"mode":"high_cost"},"traditional_seed_knowledge":{"n_answered":9,"status_counts":{},"counts":{"yes":6,"no":3},"suppressed":null,"mode":"yes"},"soil_enhancers":{"n_answered":9,"status_counts":{},"counts":{"chemical":4,"compost":4,"biofertilizer":0,"manure":6,"none":0},"suppressed":null,"mode":"manure"},"chem_fertilizer_reliance":{"n_answered":9,"status_counts":{},"counts":{"not_used":3,"partial":5,"total":1},"suppressed":null,"mode":"partial"},"pest_control":{"n_answered":9,"status_counts":{},"counts":{"chemical":5,"biological":2,"physical":3,"local":1},"suppressed":null,"mode":"chemical"},"pesticide_reliance":{"n_answered":9,"status_counts":{},"counts":{"not_used":1,"partial":4,"total":4},"suppressed":null,"mode":"partial"},"marketing_challenges":{"n_answered":9,"status_counts":{},"counts":{"low_prices":8,"weak_demand":6,"far_markets":7,"no_transport":2,"poor_packaging":2,"other":0},"suppressed":null,"mode":"low_prices"},"logistics_challenges":{"n_answered":9,"status_counts":{},"counts":{"high_transport_cost":7,"no_paved_roads":3,"no_transport":2,"other":0},"suppressed":null,"mode":"high_transport_cost"},"climate_change_noticed":{"n_answered":9,"status_counts":{},"counts":{"yes":8,"no":1},"suppressed":null,"mode":"yes"},"climate_changes":{"n_answered":8,"status_counts":{"not_applicable":1},"counts":{"temperature_rise":7,"rainfall_decrease":8,"heatwaves":6,"frost":2,"less_snow":0,"other":0},"suppressed":null,"mode":"rainfall_decrease"},"climate_impacts":{"n_answered":8,"status_counts":{"not_applicable":1},"counts":{"production_decrease":8,"season_delay":6,"pests_diseases":7,"pollination":3,"no_major_impact":0,"other":0},"suppressed":null,"mode":"production_decrease"},"info_sources":{"n_answered":9,"status_counts":{},"counts":{"social_media":8,"extension_agents":6,"supply_shops":5,"television":1,"other":0},"suppressed":null,"mode":"social_media"},"raises_poultry":{"n_answered":9,"status_counts":{},"counts":{"yes":6,"no":3},"suppressed":null,"mode":"yes"},"poultry_purpose":{"n_answered":6,"status_counts":{"not_applicable":3},"counts":{"home_consumption":6,"local_sale":1,"gifts":4},"suppressed":null,"mode":"home_consumption"},"farmer_type":{"n_answered":9,"status_counts":{},"counts":{"type_a":2,"type_b":2,"type_c":3,"type_d":2},"suppressed":null,"mode":"type_c"},"low_input_practices":{"n_answered":9,"status_counts":{},"counts":{"yes":8,"no":1},"suppressed":null,"mode":"yes"}}}},{"type":"Feature","id":"village:52111","geometry":{"type":"Polygon","coordinates":[[[35.6922,33.54462],[35.69013,33.5448],[35.68645,33.54352],[35.68082,33.54062],[35.68066,33.54153],[35.67923,33.54184],[35.6784,33.54349],[35.67557,33.54573],[35.67366,33.54618],[35.67201,33.54562],[35.669,33.54268],[35.66803,33.54294],[35.66846,33.54403],[35.67036,33.54604],[35.67229,33.54694],[35.6713,33.55028],[35.66914,33.55031],[35.66807,33.5514],[35.6667,33.55149],[35.66604,33.552],[35.66572,33.55161],[35.66493,33.55223],[35.66306,33.55102],[35.66094,33.55159],[35.65831,33.55132],[35.65406,33.55243],[35.65154,33.5523],[35.6489,33.55414],[35.64875,33.55673],[35.64834,33.55683],[35.64707,33.55555],[35.64722,33.55418],[35.64615,33.55083],[35.6452,33.54975],[35.64292,33.54487],[35.64316,33.54273],[35.63653,33.53388],[35.6343,33.53176],[35.63396,33.52837],[35.63467,33.526],[35.63078,33.52231],[35.6315,33.52009],[35.63392,33.51787],[35.63194,33.5149],[35.62901,33.51465],[35.6287,33.51209],[35.62912,33.51146],[35.63208,33.51005],[35.63287,33.50804],[35.63408,33.50731],[35.63669,33.50781],[35.63846,33.50944],[35.64267,33.5105],[35.64239,33.50947],[35.64486,33.5112],[35.64484,33.51032],[35.64555,33.50975],[35.64507,33.50927],[35.6459,33.50936],[35.64605,33.5087],[35.64683,33.50879],[35.64689,33.50928],[35.64738,33.50908],[35.64694,33.5077],[35.64835,33.50729],[35.6475,33.50582],[35.6483,33.50555],[35.64866,33.50605],[35.64908,33.50551],[35.64935,33.50592],[35.65071,33.50549],[35.65019,33.50329],[35.65038,33.50177],[35.65131,33.5025],[35.65065,33.50063],[35.65126,33.50032],[35.65043,33.49894],[35.64952,33.49883],[35.64924,33.4983],[35.64886,33.49753],[35.64984,33.49683],[35.64871,33.49505],[35.64809,33.49509],[35.64707,33.49231],[35.64474,33.4883],[35.64457,33.487],[35.64789,33.48734],[35.64998,33.48845],[35.65161,33.48866],[35.65369,33.49042],[35.65554,33.49001],[35.66025,33.49517],[35.66245,33.49652],[35.66282,33.49758],[35.66503,33.49911],[35.66628,33.50095],[35.67291,33.50281],[35.67397,33.504],[35.67454,33.50579],[35.67696,33.50797],[35.67783,33.50788],[35.67903,33.50872],[35.67961,33.50974],[35.67973,33.51205],[35.67903,33.51446],[35.68323,33.51597],[35.68237,33.51828],[35.68237,33.52066],[35.6833,33.5228],[35.68584,33.52388],[35.68687,33.52486],[35.6879,33.52495],[35.68987,33.52681],[35.69019,33.52905],[35.68915,33.52977],[35.68653,33.52969],[35.68613,33.531],[35.68848,33.53688],[35.68951,33.53761],[35.69122,33.53761],[35.69375,33.53968],[35.69378,33.5404],[35.69232,33.54258],[35.6922,33.54462]]]},"properties":{"entity_type":"village_survey_summary","name_en":"Machghara","name_ar":"مشغرة","district_en":"West Bekaa","district_ar":"البقاع الغربي","adm3_pcode":"52111","adm2_pcode":"LB24","n_respondents":15,"instruments":["beqaa_2026"],"geom_origin":"cadastral_unit_polygon","spatial_precision":"cadastral_unit","context":{"fire_detections_5km":4,"protected_area_km":0.0},"mode__owns_land":"yes","mode__land_size_band":"lt_1_ha","mode__soil_types":"loamy","mode__crop_groups":"apples_pears","mode__water_sources":"canal","mode__water_availability":"always","mode__water_scarcity":"no","mode__irrigation_need_change":"increase","mode__energy_sources":"grid","mode__production_level":"small","mode__coop_member":"no","mode__homes_trad_food":"some","mode__seed_criteria":"productivity","mode__seed_sources":"shop","mode__seed_challenges":"high_cost","mode__traditional_seed_knowledge":"no","mode__soil_enhancers":"chemical","mode__chem_fertilizer_reliance":"partial","mode__pest_control":"chemical","mode__pesticide_reliance":"partial","mode__marketing_challenges":"low_prices","mode__logistics_challenges":"high_transport_cost","mode__climate_change_noticed":"yes","mode__climate_changes":"rainfall_decrease","mode__climate_impacts":"production_decrease","mode__raises_poultry":"no","mode__farmer_type":"type_b","mode__low_input_practices":"yes","indicators":{"owns_land":{"n_answered":15,"status_counts":{},"counts":{"yes":15,"no":0},"suppressed":null,"mode":"yes"},"land_size_band":{"n_answered":15,"status_counts":{},"counts":{"lt_5_dunum":4,"lt_1_ha":8,"gt_1_ha":1,"gt_2_ha":2},"suppressed":null,"mode":"lt_1_ha"},"soil_types":{"n_answered":15,"status_counts":{},"counts":{"loamy":11,"clay":1,"sandy":2,"calcareous":1,"acidic":0},"suppressed":null,"mode":"loamy"},"crop_groups":{"n_answered":14,"status_counts":{"not_provided":1},"counts":{"olives":4,"apples_pears":12,"stone_fruits":5,"citrus":0,"tropical_fruits":0,"grapes":0,"other_fruits":1,"nuts_pine":0,"vegetables":1,"legumes":0,"cereals_fodder":1,"herbs":0,"nursery":0,"other":0},"suppressed":null,"mode":"apples_pears"},"water_sources":{"n_answered":15,"status_counts":{},"counts":{"rain":0,"river":7,"well":1,"tanker":1,"canal":8,"spring":0,"public_network":0,"storage":0,"other":0},"suppressed":null,"mode":"canal"},"water_availability":{"n_answered":15,"status_counts":{},"counts":{"always":7,"sometimes":3,"rarely":4,"never":1},"suppressed":null,"mode":"always"},"water_scarcity":{"n_answered":15,"status_counts":{},"counts":{"yes":7,"no":8},"suppressed":null,"mode":"no"},"irrigation_need_change":{"n_answered":15,"status_counts":{},"counts":{"increase":12,"decrease":1,"no_change":2,"unsure":0},"suppressed":null,"mode":"increase"},"energy_sources":{"n_answered":15,"status_counts":{},"counts":{"manual":6,"grid":10,"diesel":1,"solar":0,"gasoline":0,"gravity":0,"none":0,"other":0},"suppressed":null,"mode":"grid"},"production_level":{"n_answered":15,"status_counts":{},"counts":{"small":9,"medium":4,"large":2},"suppressed":null,"mode":"small"},"coop_member":{"n_answered":15,"status_counts":{},"counts":{"yes":0,"no":15},"suppressed":null,"mode":"no"},"homes_trad_food":{"n_answered":15,"status_counts":{},"counts":{"few":1,"some":7,"most":6,"almost_all":1},"suppressed":null,"mode":"some"},"seed_criteria":{"n_answered":15,"status_counts":{},"counts":{"price":8,"productivity":12,"pest_resistance":9,"all":0,"none":0},"suppressed":null,"mode":"productivity"},"seed_sources":{"n_answered":15,"status_counts":{},"counts":{"shop":10,"nursery":0,"neighbour":1,"association":1,"own_harvest":1,"other":2},"suppressed":null,"mode":"shop"},"seed_challenges":{"n_answered":15,"status_counts":{},"counts":{"high_cost":9,"low_availability":4,"unreliable_suppliers":1,"unsuitable":2,"none":0},"suppressed":null,"mode":"high_cost"},"traditional_seed_knowledge":{"n_answered":15,"status_counts":{},"counts":{"yes":0,"no":15},"suppressed":null,"mode":"no"},"soil_enhancers":{"n_answered":15,"status_counts":{},"counts":{"chemical":14,"compost":9,"biofertilizer":1,"manure":4,"none":0},"suppressed":null,"mode":"chemical"},"chem_fertilizer_reliance":{"n_answered":15,"status_counts":{},"counts":{"not_used":1,"partial":12,"total":2},"suppressed":null,"mode":"partial"},"pest_control":{"n_answered":15,"status_counts":{},"counts":{"chemical":14,"biological":1,"physical":1,"local":1},"suppressed":null,"mode":"chemical"},"pesticide_reliance":{"n_answered":15,"status_counts":{},"counts":{"not_used":1,"partial":9,"total":5},"suppressed":null,"mode":"partial"},"marketing_challenges":{"n_answered":15,"status_counts":{},"counts":{"low_prices":14,"weak_demand":1,"far_markets":2,"no_transport":0,"poor_packaging":0,"other":0},"suppressed":null,"mode":"low_prices"},"logistics_challenges":{"n_answered":15,"status_counts":{},"counts":{"high_transport_cost":12,"no_paved_roads":5,"no_transport":3,"other":0},"suppressed":null,"mode":"high_transport_cost"},"climate_change_noticed":{"n_answered":15,"status_counts":{},"counts":{"yes":15,"no":0},"suppressed":null,"mode":"yes"},"climate_changes":{"n_answered":15,"status_counts":{},"counts":{"temperature_rise":12,"rainfall_decrease":14,"heatwaves":10,"frost":0,"less_snow":0,"other":1},"suppressed":null,"mode":"rainfall_decrease"},"climate_impacts":{"n_answered":15,"status_counts":{},"counts":{"production_decrease":12,"season_delay":6,"pests_diseases":8,"pollination":0,"no_major_impact":0,"other":0},"suppressed":null,"mode":"production_decrease"},"info_sources":{"n_answered":0,"status_counts":{"not_asked":15},"counts":null,"suppressed":"fewer_than_k_answers","mode":null},"raises_poultry":{"n_answered":15,"status_counts":{},"counts":{"yes":0,"no":15},"suppressed":null,"mode":"no"},"poultry_purpose":{"n_answered":0,"status_counts":{"not_asked":15},"counts":null,"suppressed":"fewer_than_k_answers","mode":null},"farmer_type":{"n_answered":15,"status_counts":{},"counts":{"type_a":2,"type_b":13,"type_c":0,"type_d":0},"suppressed":null,"mode":"type_b"},"low_input_practices":{"n_answered":15,"status_counts":{},"counts":{"yes":12,"no":3},"suppressed":null,"mode":"yes"}}}}]}